actividad_tipo,nombre,tipo_via_codigo,tipo_via_descripcion,direccion_nombre_via,direccion_numero,direccion_codigo_postal,municipio_codigo,municipio_nombre,referencia,web,email,telefono,fax,longitud,latitud,fecha_creacion,fecha_actualizacion
transporte sociosanitario,Ades Siglo XXI,CL,Calle,Lanzarote,4,38632.0,38006,Arona,El Fraile,,adessiglo21@gmail.com,696858955.0,,-16.66421374,28.01250744,2016-05-09T12:45:15.374000,2023-03-10T14:11:56.184000
transporte guagua,Alpaztour Alonso y de la Paz,CR,Carretera,La Vera Baja,9,38428.0,38034,San Juan de la Rambla,,,alpaztours@teidemail.com,922360939.0,,-16.639116,28.38250399,2016-05-09T12:45:15.374000,2015-08-04T13:13:28.674000
transporte sociosanitario,Ambulancia Tenerife,CL,Calle,Lirio,3,38107.0,38038,Santa Cruz de Tenerife,El Chorrillo,,,922624988.0,,-16.32204633,28.4190549,2016-05-09T12:45:15.374000,2023-03-10T14:10:57.997000
transporte sociosanitario,Ambulancias Llano Blanco,CM,Camino,Candelaria,58,38109.0,38032,El Rosario,Llano Blanco,,,,,-16.32778878,28.4088844,2016-05-09T12:45:15,2015-08-04T10:47:48
transporte guagua,Anaga Bus,CL,Calle,Trasera Casa el Viento,16,38320.0,38023,La Laguna,La Cuesta,www.anagabus.com,,630592026.0,922616767.0,-16.28621879,28.46454617,2016-05-09T12:45:15.374000,2016-08-24T13:07:19.555000
aparcamiento publico,Aparcamiento,AV,Avenida,Antigua TF 655 Las Galletas,67,38639.0,38035,San Miguel,P I Las Chafiras,,,,,-16.62368774,28.04975382,2017-02-15T11:40:07,2017-02-16T13:51:26
aparcamiento publico,Aparcamiento,CL,Calle,Miguel Hernandez Gomez,0,38639.0,38035,San Miguel,P I Las Chafiras,,,0.0,,-16.61846806,28.05017574,2017-02-15T11:40:07.893000,2017-03-10T09:05:18.142000
aparcamiento publico,Aparcamiento,Av,Avenida,de Colon,s/n,38660.0,38001,Adeje,Puerto Colon,,,,,-16.73545403,28.07673543,2023-10-25T13:48:24.883000,2023-10-25T13:48:24.883000
aparcamiento publico,Aparcamiento,CL,Calle,Tenbel,38,38639.0,38035,San Miguel,P I Las Chafiras,,,0.0,,-16.61645522,28.05060874,2017-02-15T11:40:07.893000,2017-02-16T13:51:26.067000
aparcamiento publico,Aparcamiento,PG,Polígono,Llano Del Camello,0,38639.0,38035,San Miguel,Z I Llano Del Camello,,,661732121.0,,-16.6200979,28.05226237,2017-02-15T11:40:07.893000,2017-03-10T09:05:18.142000
aparcamiento publico,Aparcamiento,CL,Calle,La Rabasa,0,38009.0,38038,Santa Cruz de Tenerife,Z I Chamberi,,,0.0,,-16.27350304,28.45098819,2017-02-15T11:40:07.893000,2017-03-10T09:05:18.142000
aparcamiento publico,Aparcamiento,AV,Avenida,Antigua TF 655 Las Galletas,57,38639.0,38035,San Miguel,P I Las Chafiras,,,0.0,,-16.62159642,28.05008641,2017-02-15T11:40:07.893000,2018-03-16T11:40:04.759000
aparcamiento publico,Aparcamiento,CL,Calle,Subida Al Mayorazco,24,38110.0,38038,Santa Cruz de Tenerife,P I El Mayorazgo A Edificio Arca,,,0.0,,-16.28622494,28.44517921,2017-02-15T11:40:07.893000,2017-02-16T13:51:26.067000
aparcamiento publico,Aparcamiento,CL,Calle,Puntagorda,0,38108.0,38023,La Laguna,P I Los Majuelos,,,0.0,,-16.30028223,28.45904634,2017-02-15T11:40:07.893000,2017-03-10T09:05:18.142000
aparcamiento publico,Aparcamiento,AV,Avenida,El Paso,23,38108.0,38023,La Laguna,P I Los Majuelos,,,0.0,,-16.3007972,28.45917236,2017-02-15T11:40:07.893000,2017-02-17T13:37:05
aparcamiento publico,Aparcamiento,CR,Carretera,Antigua TF 655 Las Galletas,45,38639.0,38035,San Miguel,P I Las Chafiras,,,0.0,,-16.62057518,28.05019944,2017-02-15T11:40:07,2018-03-16T11:40:04.759000
aparcamiento publico,Aparcamiento,CR,Carretera,Antigua TF 655 Las Galletas,15,38639.0,38035,San Miguel,P I Las Chafiras,,,0.0,,-16.6153094,28.05007217,2017-02-15T11:40:07.893000,2017-06-21T11:46:14.064000
aparcamiento publico,Aparcamiento,AV,Avenida,Antigua TF 655 Las Galletas,38,38639.0,38035,San Miguel,P I Las Chafiras,,,0.0,,-16.61895492,28.05047488,2017-02-15T11:40:07.893000,2018-03-16T11:40:04.759000
aparcamiento publico,Aparcamiento Antiguo Mercado,PZ,"Plaza, plazoleta",Adelantado,0,38201.0,38023,La Laguna,,,,,,-16.31256362,28.48823628,2016-05-09T12:45:15.374000,2016-11-09T09:37:12.779000
aparcamiento publico,Aparcamiento Av Maritima 1,AV,Avenida,Constitucion,0,38005.0,38038,Santa Cruz de Tenerife,Plaza Intercambiador,,,,,-16.25128589,28.45787659,2016-05-09T12:45:15,2016-11-09T09:37:12.779000
aparcamiento publico,Aparcamiento Av Maritima 2,AV,Avenida,Maritima,0,38003.0,38038,Santa Cruz de Tenerife,Via Servicio Muelle Los Llanos,,,,,-16.24925967,28.46007844,2016-05-09T12:45:15,2016-11-09T09:37:12.779000
aparcamiento publico,Aparcamiento Bollullo,Cm,Camino,El Bollullo,114,38300.0,38026,La Orotava,El Bollullo,,,,,-16.51962108,28.4168179,2023-10-31T09:33:29.398000,2023-10-31T09:33:29.398000
aparcamiento publico,Aparcamiento CC Concorde,CL,Calle,San Borondon,19,38107.0,38038,Santa Cruz de Tenerife,CC Concorde Taco,,,,,-16.2996053,28.44430496,2016-05-09T12:45:15.374000,2015-08-04T10:46:09.756000
aparcamiento publico,Aparcamiento CC Continental I,CL,Calle,Bentagay,2,38111.0,38038,Santa Cruz de Tenerife,Añaza CC Continental,,,,,-16.30010464,28.42572936,2016-05-09T12:45:15.374000,2017-07-06T09:55:53.003000
aparcamiento publico,Aparcamiento CC Continental II,CL,Calle,Bentagay,2,38111.0,38038,Santa Cruz de Tenerife,Añaza CC Continental,,,,,-16.30027627,28.42533606,2016-05-09T12:45:15.374000,2017-07-06T09:55:53.003000
aparcamiento publico,Aparcamiento CC Media Markt,CL,Calle,Bentagay,2,38111.0,38038,Santa Cruz de Tenerife,Añaza CC Continental,,,,,-16.29998249,28.42600088,2016-05-09T12:45:15.374000,2017-07-06T09:55:53.003000
aparcamiento publico,Aparcamiento CC Mercado,AV,Avenida,Jose Manuel Guimera,4,38003.0,38038,Santa Cruz de Tenerife,CC Nuestra Señora de Africa Lc Pl St,,,,,-16.2514688,28.46236953,2016-05-09T12:45:15.374000,2018-01-31T12:33:10.350000
aparcamiento publico,Aparcamiento CC Meridiano,AV,Avenida,Manuel Hermoso Rojas,16,38003.0,38038,Santa Cruz de Tenerife,CC Meridiano Pt Sotano,,,,,-16.25846156,28.45690642,2016-05-09T12:45:15.374000,2016-02-19T10:03:00.238000
aparcamiento publico,Aparcamiento Cementerio Sauzal,CJ,Callejón,Cementerio,0,38360.0,38041,El Sauzal,,,,,,-16.434313,28.47943899,2016-05-09T12:45:15.374000,2016-11-09T09:37:12.779000
aparcamiento publico,Aparcamiento Centro Orotava,CL,Calle,Inocencio Garcia,5,38300.0,38026,La Orotava,,,,922332359.0,,-16.5246066,28.39043261,2018-01-22T09:02:49,2018-01-22T09:03:22.096000
aparcamiento publico,Aparcamiento Complejo Deportivo,CL,Calle,Olimpia,7,38360.0,38041,El Sauzal,,,,,,-16.429855,28.47940399,2016-05-09T12:45:15.374000,2015-08-04T13:39:35.904000
aparcamiento publico,Aparcamiento Cornalina,CL,Calle,Tome Cano,8,38005.0,38038,Santa Cruz de Tenerife,Ed Coralina,,,,,-16.26199376,28.45807989,2016-05-09T12:45:15.374000,2017-09-26T14:45:07.211000
aparcamiento publico,Aparcamiento Cubierto,CL,Calle,San Agustin,86,38430.0,38022,Icod de los Vinos,,,,,,-16.715117,28.36905615,2016-05-09T12:45:15.374000,2015-08-04T13:09:51.115000
aparcamiento publico,Aparcamiento Charco del Viento,LG,"Lugar, zona",Charco del Viento,0,38441.0,38018,La Guancha,Charco del Viento,,,,,-16.67310861,28.40025339,2016-05-09T12:45:15.374000,2023-10-18T14:38:49.207000
aparcamiento publico,Aparcamiento descubierto,Cl,Calle,del Calvario,s/n,38350.0,38043,Tacoronte,Cementerio municipal,,,,,-16.41650398,28.48324991,2023-10-31T10:36:07.076000,2023-10-31T10:36:07.076000
aparcamiento publico,Aparcamiento Descubierto,AV,Avenida,Francisco Miranda,33,38430.0,38022,Icod de los Vinos,,,,,,-16.722397,28.36956799,2016-05-09T12:45:15.374000,2015-08-04T13:09:51.115000
aparcamiento publico,Aparcamiento Descubierto,PS,Paseo,Las Americas,0,38430.0,38022,Icod de los Vinos,Py San Marcos,,,,,-16.722281,28.37800199,2016-05-09T12:45:15,2017-03-06T09:02:34.401000
aparcamiento publico,Aparcamiento Descubierto,CL,Calle,Asomada,8,38430.0,38022,Icod de los Vinos,,,,,,-16.717863,28.36649699,2016-05-09T12:45:15.374000,2015-08-04T13:09:51.115000
aparcamiento publico,Aparcamiento Descubierto,PS,Paseo,Las Americas,0,38430.0,38022,Icod de los Vinos,Py San Marcos,,,,,-16.723282,28.37724699,2016-05-09T12:45:15,2017-03-06T09:02:34.401000
aparcamiento publico,Aparcamiento Descubierto,PS,Paseo,Mencey Ycoden,3,38430.0,38022,Icod de los Vinos,,,,,,-16.718182,28.36610199,2016-05-09T12:45:15.374000,2015-08-04T13:09:51.115000
aparcamiento publico,Aparcamiento Descubierto,CL,Calle,El Durazno,20,38430.0,38022,Icod de los Vinos,,,,,,-16.715918,28.36758999,2016-05-09T12:45:15.374000,2015-08-04T13:09:51.115000
aparcamiento publico,Aparcamiento Drago Cubierto,AV,Avenida,Canarias,2,38430.0,38022,Icod de los Vinos,,,,,,-16.720201,28.36769699,2016-05-09T12:45:15.374000,2015-08-04T13:09:51.115000
aparcamiento publico,Aparcamiento El Corte Ingles,CL,Calle,Alvaro Rodriguez Lopez,1,38005.0,38038,Santa Cruz de Tenerife,Los Llanos,,,,,-16.25413315,28.45916765,2016-05-09T12:45:15.374000,2016-11-07T09:26:04.233000
aparcamiento publico,Aparcamiento El Cristo,PZ,"Plaza, plazoleta",El Cristo,0,38201.0,38023,La Laguna,,,,922632042.0,,-16.31364857,28.49298859,2016-05-09T12:45:15.374000,2016-11-09T09:37:12.779000
aparcamiento publico,Aparcamiento El Juego,CL,Calle,El Juego,8,38204.0,38023,La Laguna,,,,922251775.0,,-16.31673645,28.48716232,2016-05-09T12:45:15.374000,2015-12-04T12:52:30.166000
aparcamiento publico,Aparcamiento El Pilar,CL,Calle,Puerto Escondido,4,38002.0,38038,Santa Cruz de Tenerife,,,,,,-16.25174574,28.47013639,2016-05-09T12:45:15.374000,2022-04-22T13:23:10.741000
aparcamiento publico,Aparcamiento El Vallado,CM,Camino,El Vallado,25,38206.0,38023,La Laguna,,,,922825643.0,,-16.32565809,28.48486825,2016-05-09T12:45:15.374000,2015-12-04T12:52:30.182000
aparcamiento publico,Aparcamiento Estadio,CL,Calle,Gongora,8,38005.0,38038,Santa Cruz de Tenerife,,,,,,-16.259304,28.46272099,2016-05-09T12:45:15.374000,2015-08-04T10:26:16.678000
aparcamiento publico,Aparcamiento Estadio HRL,CL,Calle,Gumersindo Robayna Galvan,4,38005.0,38038,Santa Cruz de Tenerife,,,,,,-16.25925948,28.46295559,2016-05-09T12:45:15.374000,2015-08-04T10:26:16.678000
aparcamiento publico,Aparcamiento Girasol,CL,Calle,Girasol,0,38203.0,38023,La Laguna,San Honorato,,,,,-16.32152887,28.48643794,2016-05-09T12:45:15.374000,2016-11-09T09:37:12.779000
aparcamiento publico,Aparcamiento Greco,CL,Calle,Luis de la Cruz,17,38007.0,38038,Santa Cruz de Tenerife,,,,,,-16.26378634,28.46629315,2016-05-09T12:45:15.374000,2015-08-04T10:38:26.043000
aparcamiento publico,Aparcamiento Hospital Universitario de Canarias,CR,Carretera,General TF 194 La Cuesta Taco,0,38320.0,38023,La Laguna,Hospital Universitario de Canarias,,,,,-16.29140979,28.45868862,2017-01-27T08:57:58.465000,2017-01-27T08:57:58.465000
aparcamiento publico,Aparcamiento Intercambiador LL,AV,Avenida,Angel Guimera Jorge,5,38206.0,38023,La Laguna,Intercambiador de Transportes La Laguna,,,,,-16.31723687,28.4804662,2016-05-09T12:45:15.374000,2015-08-04T13:49:06.256000
aparcamiento publico,Aparcamiento Intercambiador SCT,CL,Calle,Fomento,2,38003.0,38038,Santa Cruz de Tenerife,Los Llanos,,,,,-16.25257576,28.45914843,2016-05-09T12:45:15,2016-10-13T09:51:30.613000
aparcamiento publico,Aparcamiento La Laguna Centro,Cl,Calle,La Higuera,20,38202.0,38023,La Laguna,,,,,,-16.32001649,28.48868592,2023-10-31T12:16:47.320000,2023-10-31T12:16:47.320000
aparcamiento publico,Aparcamiento La Magalona Cubierto,CL,Calle,Jose Luis Ravelo Pepe Flores,0,38430.0,38022,Icod de los Vinos,CC La Magalona,,,,,-16.721535,28.36888299,2016-05-09T12:45:15,2018-02-06T12:10:09.107000
aparcamiento publico,Aparcamiento La Milagrosa,PZ,"Plaza, plazoleta",San Cristobal,0,38204.0,38023,La Laguna,Pz La Milagrosa Subterraneo,,,,,-16.31396809,28.48438148,2016-05-09T12:45:15.374000,2016-11-09T09:37:12.779000
aparcamiento publico,Aparcamiento La Noria,CL,Calle,Antonio Dominguez Alfonso,40,38003.0,38038,Santa Cruz de Tenerife,La Noria,,,,,-16.25126655,28.46519076,2016-05-09T12:45:15.374000,2016-02-19T10:36:01.762000
aparcamiento publico,Aparcamiento La Piramide,CL,Calle,Mercado,3,38360.0,38041,El Sauzal,,,,,,-16.433523,28.48012899,2016-05-09T12:45:15.374000,2016-07-28T07:58:13.254000
aparcamiento publico,Aparcamiento La Trinidad,AV,Avenida,Trinidad,0,38204.0,38023,La Laguna,Subterraneo Avenida,,,922266771.0,,-16.31663521,28.48522905,2016-05-09T12:45:15.374000,2019-02-13T12:27:11.390000
aparcamiento publico,Aparcamiento La Trinidad,Av,Avenida,Trinidad,5,38204.0,38023,La Laguna,Parkia,,,,,-16.31603263,28.48684241,2023-10-31T12:23:10.542000,2023-10-31T12:23:10.542000
aparcamiento publico,Aparcamiento Laguna Centro,CL,Calle,Manuel de Ossuna,57,38202.0,38023,La Laguna,,,,922264610.0,,-16.31988361,28.48909536,2016-05-09T12:45:15.374000,2015-12-04T12:54:18.008000
aparcamiento publico,Aparcamiento Las Arenas,LG,"Lugar, zona",Playa de las Arenas,0,38480.0,38010,Buenavista del Norte,,,,,,-16.87015747,28.3721748,2016-05-09T12:45:15.374000,2023-10-18T14:41:54.296000
aparcamiento publico,Aparcamiento Las Calderetas,CL,Calle,Lomo Piedras,254,38359.0,38041,El Sauzal,La Caldereta,,,,,-16.412111,28.44638599,2016-05-09T12:45:15.374000,2015-08-04T13:40:07.951000
aparcamiento publico,Aparcamiento Las Piramides,AV,Avenida,Aguilar y Quesada,2,38400.0,38028,Puerto de la Cruz,CC Piramides de Martianez Lc ST01,,,,,-16.54336656,28.41529694,2016-09-29T09:58:03,2017-11-20T10:16:32.870000
aparcamiento publico,Aparcamiento Las Quinteras,CL,Calle,Quinteras,0,38201.0,38023,La Laguna,,,,,,-16.31291901,28.4863945,2016-05-09T12:45:15.374000,2018-02-05T09:19:43.005000
aparcamiento publico,Aparcamiento Las Retamas,CL,Calle,Las Retamas,0,38203.0,38023,La Laguna,San Honorato,,,,,-16.32199576,28.48752375,2016-05-09T12:45:15.374000,2016-11-09T09:37:12.779000
aparcamiento publico,Aparcamiento Los Andenes,CM,Camino,Los Andenes,4,38108.0,38023,La Laguna,Taco,,,,,-16.30092434,28.44695682,2016-05-09T12:45:15.374000,2016-02-04T07:52:37.512000
aparcamiento publico,Aparcamiento Luis Camacho,CL,Calle,Luis Camacho,7,38350.0,38043,Tacoronte,,,,,,-16.4126959,28.47672222,2016-05-09T12:45:15.374000,2015-08-04T13:42:46.792000
aparcamiento publico,Aparcamiento Manuel Hernandez Martin,CL,Calle,Manuel Hernandez Martin,0,38203.0,38023,La Laguna,San Honorato,,,,,-16.32222486,28.48732494,2016-05-09T12:45:15.374000,2016-11-09T09:37:12.779000
aparcamiento publico,Aparcamiento Mencey,CL,Calle,Doctor Jose Naveiras,42,38004.0,38038,Santa Cruz de Tenerife,,,,,,-16.25381885,28.47491888,2016-05-09T12:45:15.374000,2016-10-13T13:32:57.798000
aparcamiento publico,Aparcamiento Mercadillo Ravelo,LG,"Lugar, zona",Hoya de la Viuda,22,38359.0,38041,El Sauzal,Ravelo,,,,,-16.42111497,28.4591731,2016-05-09T12:45:15.374000,2015-08-04T13:40:07.951000
aparcamiento publico,Aparcamiento Mercado,CL,Calle,Mercado,5,38360.0,38041,El Sauzal,,,,,,-16.433228,28.48019999,2016-05-09T12:45:15.374000,2016-07-28T07:58:13.254000
aparcamiento publico,Aparcamiento Mercado Municipal,Av,Avenida,Blas Perez Gonzalez,s/n,38400.0,38028,Puerto de la Cruz,,,,,,-16.55370494,28.41007424,2023-10-31T08:43:30.441000,2023-10-31T08:43:30.441000
aparcamiento publico,Aparcamiento Molina,CL,Calle,Santiago Cuadrado,31,38006.0,38038,Santa Cruz de Tenerife,,,,,,-16.26272494,28.46741214,2016-05-09T12:45:15.374000,2015-08-05T07:55:58.894000
aparcamiento publico,Aparcamiento Montalban,CL,Calle,Tome Cano,2,38005.0,38038,Santa Cruz de Tenerife,,,,,,-16.26221677,28.45898023,2016-05-09T12:45:15,2017-12-14T09:32:10.802000
aparcamiento publico,Aparcamiento Muebles Drago Cubierto,CL,Calle,Asomada,4,38430.0,38022,Icod de los Vinos,,,,,,-16.718443,28.36645899,2016-05-09T12:45:15.374000,2015-08-04T13:09:51.115000
aparcamiento publico,Aparcamiento Muelle SCT,LG,"Lugar, zona",Muelle Santa Cruz,0,38002.0,38038,Santa Cruz de Tenerife,,,,,,-16.24579787,28.46814492,2016-05-09T12:45:15.374000,2016-11-09T09:37:12.779000
aparcamiento publico,Aparcamiento Mundo Ahorro,CL,Calle,Continente Trasera 1,2,38111.0,38038,Santa Cruz de Tenerife,,,,,,-16.3000252,28.42757058,2016-05-09T12:45:15,2018-04-25T14:33:16.162000
aparcamiento publico,Aparcamiento MUVISA Rodriguez Moure El Remojo,CL,Calle,Rodriguez Moure,24,38201.0,38023,La Laguna,Aparcamianto Descubierto,parking.muvisa.com,,922634396.0,,-16.31705082,28.49177327,2016-05-09T12:45:15,2018-02-05T09:19:43.005000
aparcamiento publico,Aparcamiento Pabellon Santiago Martin,CL,Calle,Las Macetas,24,38108.0,38023,La Laguna,P I Los Majuelos,,,,,-16.2974595,28.45873844,2017-07-05T09:01:11,2017-07-05T09:01:11
aparcamiento publico,Aparcamiento Pablo Iglesias,AV,Avenida,Pablo Iglesias,1,38204.0,38023,La Laguna,La Trinidad,,,,,-16.31719077,28.48471598,2016-05-09T12:45:15.374000,2018-03-07T08:55:25.415000
aparcamiento publico,Aparcamiento Parque Bulevar I,CL,Calle,Puerto Escondido,4,38002.0,38038,Santa Cruz de Tenerife,CC Parque Boulevard Pl St,,,,,-16.25124481,28.47040951,2016-05-09T12:45:15.374000,2016-07-11T08:50:29.802000
aparcamiento publico,Aparcamiento Parque Maritimo,AV,Avenida,Constitucion,0,38003.0,38038,Santa Cruz de Tenerife,Piscina Los Llanos,,,,,-16.25530544,28.45460098,2016-05-09T12:45:15.374000,2016-11-09T09:37:12.779000
aparcamiento publico,Aparcamiento Pasarella,Av,Avenida,San Francisco,12,38650.0,38006,Arona,,,,,,-16.70734596,28.05243233,2023-10-25T14:21:40.069000,2023-10-25T14:28:08.010000
aparcamiento publico,Aparcamiento Plaza El Principe,CL,Calle,La Iglesia,2,38360.0,38041,El Sauzal,,,,,,-16.437046,28.47900599,2016-05-09T12:45:15.374000,2015-08-04T13:39:35.904000
aparcamiento publico,Aparcamiento Plaza España,PZ,"Plaza, plazoleta",España,2,38002.0,38038,Santa Cruz de Tenerife,,,,,,-16.24730249,28.46811114,2016-05-09T12:45:15.374000,2015-08-04T10:16:43.810000
aparcamiento publico,Aparcamiento Plaza Europa,Pz,"Plaza, plazoleta",Europa,s/n,38400.0,38028,Puerto de la Cruz,,,,,,-16.5489704,28.41810835,2023-10-25T14:27:14.793000,2023-10-25T14:27:14.793000
aparcamiento publico,Aparcamiento Plaza Principe,CL,Calle,Suarez Guerra,50,38002.0,38038,Santa Cruz de Tenerife,,,,,,-16.2505636,28.46909169,2016-05-09T12:45:15.374000,2018-02-05T09:19:43.005000
aparcamiento publico,Aparcamiento Plaza Toros,CL,Calle,Horacio Nelson,13,38006.0,38038,Santa Cruz de Tenerife,,,,,,-16.26033139,28.470458,2016-05-09T12:45:15.374000,2015-08-05T07:55:58.894000
aparcamiento publico,Aparcamiento Polideportivo Ravelo,CL,Calle,San Cristobal,166,38359.0,38041,El Sauzal,Complejo Deportivo Paulino Rivero Ravelo,,,,,-16.424976,28.45426899,2016-05-09T12:45:15.374000,2018-07-02T12:39:23.370000
aparcamiento publico,Aparcamiento Privado,CL,Calle,Eduardo Zamacois,2,38005.0,38038,Santa Cruz de Tenerife,,,,,,-16.259998,28.46156299,2016-05-09T12:45:15.374000,2015-08-04T10:26:16.678000
aparcamiento publico,Aparcamiento pubico,Pg,Polígono,Industrial de Granadilla,s/n,38619.0,38017,Granadilla de Abona,,,,,,-16.50408579,28.0808472,2023-11-02T09:55:23.292000,2023-11-02T09:58:24.365000
aparcamiento publico,Aparcamiento publico,Cm,Camino,Flor Daute,s/n,38480.0,38010,Buenavista del Norte,,,,,,-16.84137546,28.36720167,2023-10-31T08:50:27.600000,2023-10-31T08:50:27.600000
aparcamiento publico,Aparcamiento publico,Av,Avenida,Austria,s/n,38660.0,38001,Adeje,,,,,,-16.72897987,28.07682448,2023-10-25T13:51:36.362000,2023-10-25T13:51:36.362000
aparcamiento publico,Aparcamiento publico,Av,Avenida,de Bruselas,s/n,38679.0,38001,Adeje,Fañabe,,,,,-16.73627268,28.09160694,2023-10-25T12:58:17.620000,2023-10-25T12:58:17.620000
aparcamiento publico,Aparcamiento publico,Av,Avenida,de Moscu,s/n,38670.0,38001,Adeje,,,,,,-16.73077651,28.09312549,2023-10-25T12:28:57.380000,2023-10-25T12:28:57.380000
aparcamiento publico,Aparcamiento publico,Cl,Calle,Principe Pelinor,10,38670.0,38001,Adeje,,,,,,-16.72574904,28.12282477,2023-10-25T12:21:33.159000,2023-10-25T12:21:33.159000
aparcamiento publico,Aparcamiento publico,Cl,Calle,La Viña,s/n,38670.0,38001,Adeje,,,,,,-16.72928608,28.12294038,2023-10-25T12:20:32.927000,2023-10-25T12:20:32.927000
aparcamiento publico,Aparcamiento publico,Cl,Calle,Vista Alegre,s/n,38380.0,38051,La Victoria,Ayuntamiento,,,,,-16.4693979,28.43393443,2023-10-31T09:47:52.450000,2023-10-31T09:48:46.495000
aparcamiento publico,Aparcamiento publico,Av,Avenida,Mencey Bencomo,s/n,38380.0,38051,La Victoria,Campo de futbol La Victoria de Acentejo,,,,,-16.47135859,28.43855414,2023-10-31T09:45:10.377000,2023-10-31T09:48:46.495000
aparcamiento publico,Aparcamiento publico,Cl,Calle,Las Haciendas,s/n,38380.0,38051,La Victoria,,,,,,-16.46909013,28.43412971,2023-10-31T09:47:52.450000,2023-10-31T09:47:52.450000
aparcamiento publico,Aparcamiento publico,Cl,Calle,Mesa del Mar,s/n,38350.0,38043,Tacoronte,Piscina Natural,,,,,-16.42433578,28.5031442,2023-10-31T11:13:17.833000,2023-10-31T11:13:17.833000
aparcamiento publico,Aparcamiento publico,Cr,Carretera,El Pris,s/n,38350.0,38043,Tacoronte,El Pris,,,,,-16.42084873,28.51141188,2023-10-31T11:14:31.346000,2023-10-31T11:14:31.346000
aparcamiento publico,Aparcamiento publico,Cr,Carretera,TF-16,s/n,38350.0,38043,Tacoronte,,,,,,-16.41342313,28.47833961,2023-10-31T10:33:29.378000,2023-10-31T10:33:29.378000
aparcamiento publico,Aparcamiento publico,Cl,Calle,Mesa del Mar,s/n,38350.0,38043,Tacoronte,Mesa del Mar,,,,,-16.42387021,28.50287236,2023-10-31T11:12:30.959000,2023-10-31T11:12:30.959000
aparcamiento publico,Aparcamiento publico,Av,Avenida,Cabildo Insular,s/n,38588.0,38005,Arico,Puerto de Tajao,,,,,-16.46972677,28.10947493,2023-10-25T11:59:13.546000,2023-10-25T11:59:13.546000
aparcamiento publico,Aparcamiento publico,Cl,Calle,Lorenzo Rodriguez,2,38588.0,38005,Arico,Zona de Acampada de San Miguel de Tajao,,,,,-16.47395903,28.10731115,2023-10-25T11:54:48.539000,2023-10-25T11:54:48.539000
aparcamiento publico,Aparcamiento publico,Av,Avenida,Vera de Candelaria,s/n,38588.0,38005,Arico,Abades,,,,,-16.44506375,28.14297196,2023-11-02T09:12:43.984000,2023-11-02T09:12:43.984000
aparcamiento publico,Aparcamiento publico,Av,Avenida,Cantera del Sol,s/n,38588.0,38005,Arico,Abades,,,,,-16.44462065,28.14354239,2023-11-02T08:54:35.628000,2023-11-02T09:10:48.237000
aparcamiento publico,Aparcamiento publico,Cl,Calle,16 de Mayo,s/n,38588.0,38005,Arico,Abades,,,,,-16.44079771,28.14250659,2023-11-02T08:38:42.190000,2023-11-02T08:38:42.190000
aparcamiento publico,Aparcamiento publico,Av,Avenida,La Marina ,s/n,38588.0,38005,Arico,Abades,,,,,-16.44074771,28.14170669,2023-11-02T08:42:39.276000,2023-11-02T09:10:48.237000
aparcamiento publico,Aparcamiento publico,Av,Avenida,Vera de Candelaria,s/n,38588.0,38005,Arico,Abades,,,,,-16.44557775,28.14329067,2023-11-02T09:10:11.989000,2023-11-02T09:10:11.989000
aparcamiento publico,Aparcamiento publico,Cl,Calle,El Timon,s/n,38588.0,38005,Arico,Abades,,,,,-16.44512839,28.14388766,2023-11-02T08:53:28.599000,2023-11-02T09:10:48.237000
aparcamiento publico,Aparcamiento publico,Cl,Calle,Susana,s/n,38470.0,38042,Los Silos,,,,,,-16.81743325,28.3648387,2023-10-31T08:53:38.578000,2023-10-31T08:53:38.578000
aparcamiento publico,Aparcamiento publico,Cl,Calle,Lagar de Mendoza,3,38360.0,38041,El Sauzal,,,,,,-16.41852481,28.47417609,2023-10-31T10:29:41.354000,2023-10-31T10:29:41.354000
aparcamiento publico,Aparcamiento publico,Av,Avenida,Francisco Andrade Fumero,1,38660.0,38006,Arona,,,,,,-16.729422,28.05219955,2023-10-25T14:05:51.287000,2023-10-25T14:05:51.287000
aparcamiento publico,Aparcamiento publico,Cl,Calle,Jose Garcia Allo,s/n,38626.0,38006,Arona,Valle San Lorenzo,,,,,-16.65697905,28.09261931,2023-11-06T08:39:15.787000,2023-11-06T08:39:15.787000
aparcamiento publico,Aparcamiento publico,Lg,"Lugar, zona",Puerto de San Miguel,s/n,38639.0,38006,Arona,Amarilla Golf,,,,,-16.61171715,28.02203217,2023-11-02T12:48:44.866000,2023-11-02T12:48:44.866000
aparcamiento publico,Aparcamiento publico,Av,Avenida,J. M. Galvan Bello,1,38639.0,38006,Arona,Campo de golf,,,,,-16.61016891,28.03391969,2023-11-02T12:43:55.406000,2023-11-02T12:43:55.406000
aparcamiento publico,Aparcamiento publico,Cl,Calle,Trasera S. Blas,1,38639.0,38006,Arona,Oasis del Sur,,,,,-16.60025145,28.0278611,2023-11-02T12:35:13.845000,2023-11-02T12:35:13.845000
aparcamiento publico,Aparcamiento publico,Cl,Calle,San Blas,101,38639.0,38006,Arona,Oasis del Sur,,,,,-16.60229806,28.02927342,2023-11-02T12:34:03.253000,2023-11-02T12:34:03.253000
aparcamiento publico,Aparcamiento publico,Cl,Calle,Texas,s/n,38650.0,38006,Arona,La Pepa,,,,,-16.70651247,28.05250107,2023-10-25T14:20:40.603000,2023-10-25T14:20:40.603000
aparcamiento publico,Aparcamiento publico,Cl,Calle,Bulevar Chajofe,s/n,38650.0,38006,Arona,,,,,,-16.71397088,28.05414617,2023-10-25T14:12:09.760000,2023-10-25T14:12:09.760000
aparcamiento publico,Aparcamiento publico,Cl,Calle,Siete Islas,s/n,38650.0,38006,Arona,,,,,,-16.72697857,28.0585456,2023-10-25T14:01:17.046000,2023-10-25T14:01:17.046000
aparcamiento publico,Aparcamiento publico,Av,Avenida,Inmaculada Concepcion,s/n,38360.0,38041,El Sauzal,,,,,,-16.43443369,28.47965506,2023-10-31T10:22:46.852000,2023-10-31T10:22:46.852000
aparcamiento publico,Aparcamiento publico,Cm,Camino,El Rincon,s/n,38480.0,38010,Buenavista del Norte,,,,,,-16.87497423,28.36963105,2023-10-31T08:47:15.747000,2023-10-31T08:47:15.747000
aparcamiento publico,Aparcamiento publico,Cm,Camino,El Fraile,s/n,38480.0,38010,Buenavista del Norte,Playa Punta del Fraile,,,,,-16.87868624,28.36877803,2023-10-31T08:46:12.077000,2023-10-31T08:46:12.077000
aparcamiento publico,Aparcamiento publico,Av,Avenida,Jose Gonzalez Forte,s/n,38683.0,38040,Santiago del Teide,Los Gigantes,,,,,-16.84229877,28.24394734,2023-11-06T09:12:16.161000,2023-11-06T09:12:16.161000
aparcamiento publico,Aparcamiento publico,Cl,Calle,Las Rosas,s/n,38683.0,38040,Santiago del Teide,,,,,,-16.84073179,28.24077353,2023-11-06T09:04:54.003000,2023-11-06T09:04:54.003000
aparcamiento publico,Aparcamiento publico,Cl,Calle,Guanches de la Virgen de Candelaria,8,38509.0,38011,Candelaria,,,,,,-16.37484063,28.35064445,2023-10-31T13:53:29.525000,2023-10-31T13:53:29.525000
aparcamiento publico,Aparcamiento publico,Av,Avenida,Las Palmeras,s/n,38390.0,38039,Santa Úrsula,,,,,,-16.48928283,28.42693534,2023-10-31T09:38:21.734000,2023-10-31T09:38:21.734000
aparcamiento publico,Aparcamiento publico,Av,Avenida,Los Roques,s/n,38570.0,38012,Fasnia,San Roque,,,,,-16.41395431,28.22087143,2023-11-02T08:29:05.786000,2023-11-02T08:29:05.786000
aparcamiento publico,Aparcamiento publico,Av,Avenida,Adolfo Suarez,s/n,38450.0,38015,Garachico,,,,,,-16.76342228,28.37493114,2023-10-31T09:06:00.554000,2023-10-31T09:06:00.554000
aparcamiento publico,Aparcamiento publico,Cr,Carretera,TF-42,s/n,38460.0,38015,Garachico,San Pedro Daute,,,,,-16.77000424,28.37096134,2023-10-31T08:59:38.067000,2023-10-31T08:59:38.067000
aparcamiento publico,Aparcamiento publico,Cr,Carretera,TF-42,s/n,38460.0,38015,Garachico,,,,,,-16.768042,28.37187685,2023-10-31T09:01:06.611000,2023-10-31T09:01:06.611000
aparcamiento publico,Aparcamiento publico,Cl,Calle,18 de Julio,s/n,38460.0,38015,Garachico,,,,,,-16.76375661,28.37269393,2023-10-31T09:03:02.654000,2023-10-31T09:03:02.654000
aparcamiento publico,Aparcamiento publico,Cl,Calle,La Gaviota,s/n,38618.0,38017,Granadilla de Abona,Los Abrigos,,,,,-16.59176973,28.03122317,2023-11-02T12:18:12.190000,2023-11-02T12:18:12.190000
aparcamiento publico,Aparcamiento publico,Cl,Calle,de El Risco,s/n,38619.0,38017,Granadilla de Abona,,,,,,-16.50659171,28.09090996,2023-11-02T09:58:05.365000,2023-11-02T09:58:05.365000
aparcamiento publico,Aparcamiento publico,Av,Avenida,Europa,s/n,38612.0,38017,Granadilla de Abona,La Jaquita,,,,,-16.52893413,28.05040583,2023-11-02T10:10:02.905000,2023-11-02T10:10:02.905000
aparcamiento publico,Aparcamiento publico,Cl,Calle,La Arena,s/n,38618.0,38017,Granadilla de Abona,Los Abrigos,,,,,-16.59519429,28.03000926,2023-11-02T12:22:04.448000,2023-11-02T12:22:04.448000
aparcamiento publico,Aparcamiento publico,Cl,Calle,La Sirenita,s/n,38618.0,38017,Granadilla de Abona,La Mareta,,,,,-16.57452197,28.03153641,2023-11-02T12:12:57.638000,2023-11-02T12:12:57.638000
aparcamiento publico,Aparcamiento publico,Cl,Calle,Estrella de Mar,s/n,38618.0,38017,Granadilla de Abona,Los Abrigos,,,,,-16.5921525,28.0304553,2023-11-02T12:16:46.787000,2023-11-02T12:16:46.787000
aparcamiento publico,Aparcamiento publico,Cl,Calle,Adolfo Suarez,s/n,38429.0,38018,La Guancha,Las Aguas,,,,,-16.63946335,28.39504884,2023-10-31T09:16:27.167000,2023-10-31T09:16:27.167000
aparcamiento publico,Aparcamiento publico,Cl,Calle,Artes de Mar,2,38687.0,38019,Guía de Isora,Playa San Juan,,,,,-16.81382747,28.18100785,2023-11-06T08:45:29.619000,2023-11-06T08:45:29.619000
aparcamiento publico,Aparcamiento publico,Cl,Calle,Carero,s/n,38686.0,38019,Guía de Isora,Alcala,,,,,-16.83117209,28.20196607,2023-11-06T08:52:32.918000,2023-11-06T08:52:32.918000
aparcamiento publico,Aparcamiento publico,Cl,Calle,Punta Negra,s/n,38683.0,38019,Guía de Isora,La Arena,,,,,-16.84193163,28.22793457,2023-11-06T08:56:51.550000,2023-11-06T08:56:51.550000
aparcamiento publico,Aparcamiento publico,Cl,Calle,La Salvaje,s/n,38683.0,38019,Guía de Isora,La Arena,,,,,-16.83958819,28.23301204,2023-11-06T08:59:05.702000,2023-11-06T08:59:05.702000
aparcamiento publico,Aparcamiento publico,Cl,Calle,Nicolas Gonzalez Sopranis,1,38010.0,38038,Santa Cruz de Tenerife,,,,,,-16.28462421,28.45977873,2023-10-31T12:41:54.897000,2023-10-31T12:41:54.897000
aparcamiento publico,Aparcamiento publico,Av,Avenida,Maritima,s/n,38190.0,38038,Santa Cruz de Tenerife,,,,,,-16.33277421,28.40157847,2023-10-31T13:41:09.877000,2023-10-31T13:41:09.877000
aparcamiento publico,Aparcamiento publico,Av,Avenida,Maritima,s/n,38190.0,38038,Santa Cruz de Tenerife,,,,,,-16.33261798,28.40098011,2023-10-31T13:41:09.877000,2023-10-31T13:41:09.877000
aparcamiento publico,Aparcamiento publico,Py,Playa,Las Teresitas,s/n,38129.0,38038,Santa Cruz de Tenerife,Las Teresitas,,,,,-16.18561204,28.50996832,2023-11-03T12:41:53.100000,2023-11-03T12:41:53.100000
aparcamiento publico,Aparcamiento publico,Cr,Carretera,TF-4,s/n,38003.0,38038,Santa Cruz de Tenerife,Palmetum,,,,,-16.25670907,28.45349752,2023-11-03T13:17:38.687000,2023-11-03T13:17:38.687000
aparcamiento publico,Aparcamiento publico,Cl,Calle,Dr. Antonio Perera Reyes,s/n,38003.0,38038,Santa Cruz de Tenerife,Intercambiador Santa Cruz,,,,,-16.25067861,28.45881714,2023-11-03T13:23:50.347000,2023-11-03T13:23:50.347000
aparcamiento publico,Aparcamiento publico,Cr,Carretera,General del Rosario,s/n,38010.0,38038,Santa Cruz de Tenerife,Hospital Universitario Nuestra Señora de Candelaria,,,,,-16.2871895,28.44749986,2023-11-03T13:30:46.537000,2023-11-03T13:30:46.537000
aparcamiento publico,Aparcamiento publico,Cr,Carretera,a Icod,5,38458.0,38022,Icod de los Vinos,,,,,,-16.74505904,28.37347977,2023-10-31T09:10:19.454000,2023-10-31T09:10:19.454000
aparcamiento publico,Aparcamiento publico,Cl,Calle,Pancho Camurria,1,38009.0,38038,Santa Cruz de Tenerife,Pabellon Pancho Camurria,,,,,-16.2680576,28.45665414,2023-11-03T14:06:08.141000,2023-11-03T14:06:08.141000
aparcamiento publico,Aparcamiento publico,Cr,Carretera,General de Hoya Fria,s/n,38110.0,38038,Santa Cruz de Tenerife,Tanatorio Santa Lastenia,,,,,-16.27890307,28.44772873,2023-11-03T14:10:33.383000,2023-11-03T14:10:33.383000
aparcamiento publico,Aparcamiento publico,Av,Avenida,Cornisa Achimencey,s/n,38250.0,38023,La Laguna,Bajamar,,,,,-16.34895122,28.55280163,2023-11-02T14:33:25.165000,2023-11-02T14:33:25.165000
aparcamiento publico,Aparcamiento publico,Cr,Carretera,TF-12,s/n,38294.0,38023,La Laguna,Cruz del Carmen,,,,,-16.27993419,28.53088748,2023-11-03T12:34:15.943000,2023-11-03T12:34:15.943000
aparcamiento publico,Aparcamiento publico,Cm,Camino,La Barranquera,140,38270.0,38023,La Laguna,,,,,,-16.39522237,28.53715073,2023-11-03T12:07:11.276000,2023-11-03T12:07:11.276000
aparcamiento publico,Aparcamiento publico,Av,Avenida,el Sol,s/n,38250.0,38023,La Laguna,Bajamar,,,,,-16.34456585,28.55504822,2023-11-02T14:15:11.669000,2023-11-02T14:15:11.669000
aparcamiento publico,Aparcamiento publico,Av,Avenida,de los Menceyes,399,38320.0,38023,La Laguna,,,,,,-16.28802845,28.46821983,2023-10-31T12:35:40.628000,2023-10-31T12:35:40.628000
aparcamiento publico,Aparcamiento publico,Cl,Calle,Marosilla,s/n,38320.0,38023,La Laguna,Complejo Deportivo,,,,,-16.29056875,28.47026019,2023-10-31T12:34:27.427000,2023-10-31T12:34:27.427000
aparcamiento publico,Aparcamiento publico,Cl,Calle,Mali,s/n,38320.0,38023,La Laguna,,,,,,-16.28877835,28.46291739,2023-10-31T12:31:06.824000,2023-10-31T12:31:06.824000
aparcamiento publico,Aparcamiento publico,Cl,Calle,Mali,s/n,38320.0,38023,La Laguna,Campo Futbol,,,,,-16.28955013,28.46232996,2023-10-31T12:30:32.544000,2023-10-31T12:30:32.544000
aparcamiento publico,Aparcamiento publico,Cl,Calle,Piedra Redonda,12,38670.0,38001,Adeje,,,,,,-16.72911736,28.12193426,2023-10-25T12:19:44.507000,2023-10-25T12:19:44.507000
aparcamiento publico,Aparcamiento publico,Cr,Carretera,General TF-217,s/n,38370.0,38025,La Matanza,Mercadillo del Agricultor,,,,,-16.45789002,28.44737175,2023-10-31T10:06:10.009000,2023-10-31T10:06:10.009000
aparcamiento publico,Aparcamiento publico,Cl,Calle,La Resbala,s/n,38379.0,38025,La Matanza,Pabellon Municipal,,,,,-16.45224388,28.44697492,2023-10-31T10:10:10.454000,2023-10-31T10:11:56.466000
aparcamiento publico,Aparcamiento publico,Cl,Calle,La Resbala,s/n,38379.0,38025,La Matanza,Complejo Deportivo,,,,,-16.45102216,28.44635313,2023-10-31T10:11:26.561000,2023-10-31T10:11:26.561000
aparcamiento publico,Aparcamiento publico,Cr,Carretera,General TF-217,s/n,38370.0,38025,La Matanza,,,,,,-16.45828997,28.44730301,2023-10-31T10:05:15.495000,2023-10-31T10:05:15.495000
aparcamiento publico,Aparcamiento publico,Cl,Calle,Pintor Hernandez Quintana,s/n,38314.0,38026,La Orotava,Complejo Mayorazgo,,,,,-16.5313883,28.39354904,2023-10-31T09:28:56.311000,2023-10-31T09:28:56.311000
aparcamiento publico,Aparcamiento publico,Cl,Calle,Agrupacion Folklorica de Higa,s/n,38315.0,38026,La Orotava,,,,,,-16.56136411,28.37859941,2023-10-31T09:23:58.235000,2023-10-31T09:23:58.235000
aparcamiento publico,Aparcamiento publico,Cl,Calle,Corazon de Maria,s/n,38010.0,38038,Santa Cruz de Tenerife,,,,,,-16.28799721,28.45007687,2023-10-31T13:10:27.967000,2023-10-31T13:10:27.967000
aparcamiento publico,Aparcamiento publico,Cr,Carretera,de las Dehesas,20,38400.0,38028,Puerto de la Cruz,Las Dehesas,,,,,-16.55524068,28.40863458,2023-10-31T08:39:29.855000,2023-10-31T08:39:29.855000
aparcamiento publico,Aparcamiento publico,Lg,"Lugar, zona",Explada del Muelle,s/n,38400.0,38028,Puerto de la Cruz,,,,,,-16.55159975,28.41844737,2023-10-25T14:24:39.517000,2023-10-25T14:24:39.517000
aparcamiento publico,Aparcamiento publico,Av,Avenida,Familia de Betancourt y Molina,s/n,38400.0,38028,Puerto de la Cruz,,,,,,-16.54745575,28.41533371,2023-10-27T08:30:52.490000,2023-10-27T08:30:52.490000
aparcamiento publico,Aparcamiento publico,Cr,Carretera,Taoro,s/n,38400.0,38028,Puerto de la Cruz,Parque Taoro,,,,,-16.54830877,28.41130299,2023-10-27T08:31:55.051000,2023-10-27T08:31:55.051000
aparcamiento publico,Aparcamiento publico,Cr,Carretera,TF-652,s/n,38631.0,38035,San Miguel,Las Galletas,,,,,-16.65404135,28.00931272,2023-11-02T13:12:37.367000,2023-11-02T13:12:37.367000
aparcamiento publico,Aparcamiento publico,Ps,Paseo,Cronos,s/n,38630.0,38035,San Miguel,,,,,,-16.64704694,28.01027666,2023-11-02T13:18:16.731000,2023-11-02T13:19:43.650000
aparcamiento publico,Aparcamiento publico,Cr,Carretera,TF-5,s/n,38419.0,38031,Los Realejos,Rambla de Castro,,,,,-16.59328497,28.394852,2023-10-31T09:19:17.960000,2023-10-31T09:19:17.960000
aparcamiento publico,Aparcamiento publico,Av,Avenida,de Fernando Salazar Gonzalez,s/n,38631.0,38035,San Miguel,Las Galletas,,,,,-16.6532727,28.00723174,2023-11-02T13:09:12.139000,2023-11-02T13:09:12.139000
aparcamiento publico,Aparcamiento publico,Cr,Carretera,General TF-66,s/n,38631.0,38035,San Miguel,Las Galletas,,,,,-16.65522244,28.00901589,2023-11-02T13:14:03.895000,2023-11-02T13:14:03.895000
aparcamiento publico,Aparcamiento publico,Cl,Calle,Camino de Archiles,11,38632.0,38035,San Miguel,Campo de futbol,,,,,-16.63024443,28.0359374,2023-11-02T13:03:44.634000,2023-11-02T13:03:44.634000
aparcamiento publico,Aparcamiento Publico,CL,Calle,La Iglesia,0,38370.0,38025,La Matanza,,,,,,-16.44695161,28.45280808,2016-05-09T12:45:15.374000,2016-11-09T09:37:12.779000
aparcamiento publico,Aparcamiento Publico,AV,Avenida,La Constitucion,2,38509.0,38011,Candelaria,Aparcamianto Descubierto,,,,,-16.36988503,28.35490008,2016-05-09T12:45:15.374000,2015-08-04T10:53:32.454000
aparcamiento publico,Aparcamiento Publico,AV,Avenida,La Constitucion,4,38509.0,38011,Candelaria,Aparcamianto Descubierto,,,,,-16.36970916,28.35556754,2016-05-09T12:45:15.374000,2015-08-04T10:53:32.454000
aparcamiento publico,Aparcamiento Publico,Cm,Camino,El Espinero,s/n,38206.0,38023,La Laguna,Aparcamiento Descubierto,,,,,-16.32824829,28.48768606,2023-10-16T10:49:21.582000,2023-10-16T10:50:43.423000
aparcamiento publico,Aparcamiento Publico,CL,Calle,Andres Tejera Reyes,4,38509.0,38011,Candelaria,Aparcamianto Cubierto,,,,,-16.37009057,28.35621805,2016-05-09T12:45:15.374000,2015-08-04T10:53:32.454000
aparcamiento publico,Aparcamiento Publico,CL,Calle,Tosca de la Iglesia,11,38390.0,38039,Santa Úrsula,,,,,,-16.490368,28.42480899,2016-05-09T12:45:15.374000,2015-08-04T13:34:28.221000
aparcamiento publico,Aparcamiento Publico,CL,Calle,Sabino Berthelot Augier,19,38300.0,38026,La Orotava,El Mayorazgo Cruce Cl Viera,,,,,-16.52620311,28.39147372,2016-05-09T12:45:15,2018-01-22T09:48:23.326000
aparcamiento publico,Aparcamiento público,Av,Avenida,Tinguaro,s/n,38370.0,38025,La Matanza,,,,,,-16.45721355,28.44864502,2023-10-31T10:07:35.006000,2023-10-31T10:07:35.006000
aparcamiento publico,Aparcamiento Publico 1,CL,Calle,Domingo Dominguez Luis,10,38300.0,38026,La Orotava,,,,,,-16.51968312,28.39070298,2016-05-09T12:45:15,2015-08-04T13:30:57
aparcamiento publico,Aparcamiento Publico 2,CL,Calle,Domingo Dominguez Luis,10,38300.0,38026,La Orotava,,,,,,-16.51977123,28.39029733,2016-05-09T12:45:15,2018-01-22T09:18:53.547000
aparcamiento publico,Aparcamiento Publico 3,CL,Calle,Domingo Dominguez Luis,10,38300.0,38026,La Orotava,,,,,,-16.52020737,28.38991882,2016-05-09T12:45:15,2015-08-04T13:30:57
aparcamiento publico,Aparcamiento Publico Alsaca,AV,Avenida,Maritima,25,38509.0,38011,Candelaria,Ed Alsaca,,,922517474.0,,-16.36588193,28.36263847,2016-05-09T12:45:15,2018-06-22T12:03:04.919000
aparcamiento publico,Aparcamiento Publico Alvarez Descubierto,CL,Calle,Emeterio Gutierrez Albelo,4,38430.0,38022,Icod de los Vinos,,,,,,-16.718849,28.36817599,2016-05-09T12:45:15.374000,2015-08-04T13:09:51.115000
aparcamiento publico,Aparcamiento Publico Auditorio,AV,Avenida,Constitucion,1,38003.0,38038,Santa Cruz de Tenerife,Los Llanos,,,,,-16.25122338,28.45607519,2016-05-09T12:45:15.374000,2015-08-04T10:22:19.650000
aparcamiento publico,Aparcamiento Publico Barrio Nuevo Viña Nava,AV,Avenida,Los Menceyes,45,38205.0,38023,La Laguna,,,,,,-16.30991891,28.47739973,2018-01-15T13:19:39.755000,2018-02-05T09:19:43.005000
aparcamiento publico,Aparcamiento Publico Buzanada,CR,Carretera,General TF 657 Buzanada Aldea Blanca,0,38627.0,38006,Arona,Buzanada Apartadero,,,,,-16.65341706,28.06702443,2016-05-09T12:45:15.374000,2016-11-09T09:37:12.779000
aparcamiento publico,Aparcamiento Publico Cabo Blanco,CL,Calle,Orilla,3,38627.0,38006,Arona,Cabo Blanco,,,,,-16.67210562,28.07503658,2016-05-09T12:45:15.374000,2015-08-04T12:32:00.097000
aparcamiento publico,Aparcamiento Publico Campo Municipal San Juan de la Rambla,CL,Calle,Adan Martin Menis,1,38428.0,38034,San Juan de la Rambla,San Jose,,,,,-16.639189,28.37853099,2016-05-09T12:45:15.374000,2015-08-04T13:13:28.674000
aparcamiento publico,Aparcamiento Publico Descubierto,AV,Avenida,Principe Felipe,20,38631.0,38006,Arona,Las Galletas,,,0.0,0.0,-16.65608678,28.00889593,2016-05-09T12:45:15.374000,2015-08-04T12:36:55.984000
aparcamiento publico,Aparcamiento Publico Descubierto,CL,Calle,Teniente Alfonso Gonzalez Campos,1,38010.0,38038,Santa Cruz de Tenerife,Ofra,,,,,-16.28543363,28.45367362,2018-01-15T10:08:43.835000,2018-02-05T09:19:43.005000
aparcamiento publico,Aparcamiento Publico El Medano,CL,Calle,Tenerife,0,38612.0,38017,Granadilla de Abona,El Medano,,,,,-16.53994087,28.04623339,2016-05-09T12:45:15.374000,2016-11-09T09:37:12.779000
aparcamiento publico,Aparcamiento Publico Mercado Tacoronte La Estacion,CR,Carretera,General TF 16 Tacoronte Tejina,11,38350.0,38043,Tacoronte,Mercado Municipal,,,,,-16.41466301,28.47800746,2016-05-09T12:45:15.374000,2016-02-17T13:49:21.140000
aparcamiento publico,Aparcamiento Publico Parking Orotava,CL,Calle,San Juan Bosco,2,38300.0,38026,La Orotava,,,,922323635.0,,-16.51955089,28.39397232,2016-05-09T12:45:15,2018-01-22T09:48:23.326000
aparcamiento publico,Aparcamiento Publico Playa Fañabe,CL,Calle,Londres,7,38660.0,38001,Adeje,Fañabe Ed Lagos de Fañabe,,,,,-16.73570895,28.08728144,2016-05-09T12:45:15.374000,2017-05-18T12:38:48.569000
aparcamiento publico,Aparcamiento Publico Plaza San Jose,CL,Calle,Diecinueve de Marzo,25,38428.0,38034,San Juan de la Rambla,San Jose,,,,,-16.645658,28.38030099,2016-05-09T12:45:15.374000,2015-08-04T13:13:28.674000
aparcamiento publico,Aparcamiento Publico Plaza San Pedro,PZ,"Plaza, plazoleta",San Pedro,19,38500.0,38020,Güimar,,,,,,-16.41065633,28.31590959,2016-05-09T12:45:15.374000,2015-08-04T10:57:05.185000
aparcamiento publico,Aparcamiento Publico San Benito,CM,Camino,Viejo de San Benito,6,38410.0,38031,Los Realejos,Realejo Alto,,,,,-16.58229118,28.38006271,2016-05-09T12:45:15.374000,2023-10-18T14:39:08.082000
aparcamiento publico,Aparcamiento Publico San Pedro,AV,Avenida,La Paz,1,38613.0,38052,Vilaflor,Pz San Pedro,,,,,-16.63703188,28.16052192,2018-01-25T09:27:24.760000,2018-01-25T09:27:24.760000
aparcamiento publico,Aparcamiento Publico Santa Monica,CL,Calle,Santa Monica,11,38010.0,38038,Santa Cruz de Tenerife,Fc La Multa,,,,,-16.29048929,28.45441455,2016-05-09T12:45:15.374000,2017-12-15T12:51:58.193000
aparcamiento publico,Aparcamiento Publico Tegueste,CR,Carretera,General TF 13 Punta Hidalgo,184,38280.0,38046,Tegueste,,,,,,-16.33618444,28.52157985,2016-05-09T12:45:15.374000,2015-08-04T13:51:37.202000
aparcamiento publico,Aparcamiento Publico Tincer,CL,Calle,Nivaria,34,38107.0,38038,Santa Cruz de Tenerife,Tincer,,,,,-16.30596294,28.44352979,2018-02-27T11:20:20.363000,2018-02-27T11:20:20.363000
aparcamiento publico,Aparcamiento Publlico San Agustin,PZ,"Plaza, plazoleta",V Centenario,2,38300.0,38026,La Orotava,Centro de Ocio San Agustin,,,,,-16.52220949,28.39108464,2016-05-09T12:45:15.374000,2015-11-25T09:17:17.697000
aparcamiento publico,Aparcamiento Puerto Los Cristianos,Cl,Calle,del Espigon,34,38650.0,38006,Arona,Puerto Los Cristianos,,,,,-16.72017008,28.04910464,2023-10-25T14:09:42.452000,2023-10-25T14:09:42.452000
aparcamiento publico,Aparcamiento Ramon y Cajal,CL,Calle,Ramon y Cajal Prolongacion,4,38003.0,38038,Santa Cruz de Tenerife,,,,,,-16.25300641,28.46521502,2016-05-09T12:45:15.374000,2015-08-04T10:19:38.808000
aparcamiento publico,Aparcamiento Realejos,CL,Calle,Taoro,13,38410.0,38031,Los Realejos,San Benito,,,,,-16.58355839,28.38179644,2016-05-09T12:45:15,2023-10-18T14:39:08.082000
aparcamiento publico,Aparcamiento Rojas,Cm,Camino,Rojas,0,38360.0,38041,El Sauzal,,,,,,-16.452843,28.46963699,2016-05-09T12:45:15.374000,2023-10-31T10:19:39.811000
aparcamiento publico,Aparcamiento Rosalia,CL,Calle,Santa Rosalia,81,38002.0,38038,Santa Cruz de Tenerife,,,,,,-16.25223959,28.47155312,2016-05-09T12:45:15.374000,2022-04-22T13:23:10.741000
aparcamiento publico,Aparcamiento Samoga,AV,Avenida,Inmaculada Concepcion,11,38360.0,38041,El Sauzal,,,,,,-16.435711,28.47988099,2016-05-09T12:45:15.374000,2015-08-04T13:39:35.904000
aparcamiento publico,Aparcamiento San Benito,CL,Calle,Don Quijote,2,38203.0,38023,La Laguna,,,,,,-16.32362419,28.48684537,2016-05-09T12:45:15.374000,2015-08-04T13:59:50.927000
aparcamiento publico,Aparcamiento San Borondon,CL,Calle,San Borondon,0,38203.0,38023,La Laguna,San Honorato,,,,,-16.32197546,28.48657303,2016-05-09T12:45:15.374000,2016-11-09T09:37:12.779000
aparcamiento publico,Aparcamiento San Juan,CL,Calle,San Juan,19,38204.0,38023,La Laguna,,,,922259810.0,,-16.31747659,28.48738324,2016-05-09T12:45:15.374000,2015-12-04T12:52:30.166000
aparcamiento publico,Aparcamiento San Juan 2,CL,Calle,San Juan,22,38204.0,38023,La Laguna,,,,,,-16.31762012,28.48765159,2016-05-09T12:45:15.374000,2015-12-04T12:52:30.166000
aparcamiento publico,Aparcamiento San Juan de Dios,CR,Carretera,General TF 180 Santa Cruz La Laguna,53,38009.0,38038,Santa Cruz de Tenerife,Vuelta los Pajaros,www.parkingsanjuandedios.com,info@parkingsanjuandedios.com,922670777.0,,-16.28254774,28.46228491,2016-05-09T12:45:15.374000,2015-08-04T10:30:50.252000
aparcamiento publico,Aparcamiento San Miguel de Geneto,CR,Carretera,General TF 263 San Miguel de Geneto,153,38296.0,38023,La Laguna,San Miguel de Geneto,,,,,-16.31410798,28.46073404,2016-05-09T12:45:15.374000,2018-02-14T14:21:22.681000
aparcamiento publico,Aparcamiento San Pedro,CL,Calle,Sierva de Dios,21,38360.0,38041,El Sauzal,,,,,,-16.4377,28.47838599,2016-05-09T12:45:15.374000,2015-08-04T13:39:35.904000
aparcamiento publico,Aparcamiento San Sebastian,AV,Avenida,San Sebastian,7,38003.0,38038,Santa Cruz de Tenerife,Plaza Mercado,,,,,-16.25149846,28.4635977,2016-05-09T12:45:15.374000,2017-06-14T12:46:32.500000
aparcamiento publico,Aparcamiento Taco,CL,Calle,Academia,10,38108.0,38023,La Laguna,Taco,,,,,-16.29922565,28.44611657,2016-05-09T12:45:15.374000,2015-12-04T12:58:58.831000
aparcamiento publico,Aparcamiento Tierra Lavada,Cl,Calle,San Jose,2,38670.0,38001,Adeje,B,,,,,-16.73245598,28.12115779,2023-10-25T12:18:06.682000,2023-10-25T14:28:08.010000
aparcamiento publico,Aparcamiento Tome Cano,CL,Calle,Heliodoro Rodriguez Lopez,36,38005.0,38038,Santa Cruz de Tenerife,Ed Osa Mayor Pz Roja,,,,,-16.26273762,28.46027093,2016-05-09T12:45:15,2018-02-07T12:57:38.087000
aparcamiento publico,Aparcamiento Valdes Center,Av,Avenida,Amsterdam,s/n,,38006,Arona,,,,,,-16.71368498,28.0538962,2023-10-25T14:15:02.832000,2023-10-25T14:28:08.010000
aparcamiento publico,Aparcamiento Weyler,PZ,"Plaza, plazoleta",Weyler,0,38003.0,38038,Santa Cruz de Tenerife,,apk2gestion.com,info@apk2.es,912302032.0,,-16.25477617,28.46709991,2016-05-09T12:45:15.374000,2022-04-22T13:23:10.741000
aparcamiento publico,Aparcamientos,Cr,Carretera,Acceso a Campo de Golf,sn,38480.0,38010,Buenavista del Norte,,,,,,-16.8690756,28.37338705,2023-10-18T12:08:17.876000,2023-10-18T12:08:17.876000
aparcamiento publico,Aparcamientos Ofra,CL,Calle,Teno,32,38009.0,38038,Santa Cruz de Tenerife,Ofra,,,922232719.0,,-16.28073651,28.45620788,2016-05-09T12:45:15.374000,2015-08-04T10:30:50.252000
transporte guagua,Arico Bus Tour,CL,Calle,La Malva,20,38611.0,38017,Granadilla de Abona,Atogo,,,617903500.0,922764077.0,-16.586372,28.06095099,2016-05-09T12:45:15.374000,2015-08-04T11:58:50.747000
transporte mercancia,Asociacion Local Empresarios Paradas Camiones SP Granadilla,PG,Polígono,Industrial de Granadilla,0,38612.0,38017,Granadilla de Abona,Pg Granadilla,,gruaseloso@gruaseloso.com,696982991.0,,-16.51841568,28.08134422,2016-05-09T12:45:15.374000,2016-11-09T09:37:12.779000
transporte guagua,Asociacion Transportistas TRANSDAUTE,LG,"Lugar, zona",Finca Los Marcos,0,38480.0,38010,Buenavista del Norte,Pg Dauteflor,,,,,-16.84214561,28.36547687,2016-05-09T12:45:15.374000,2023-10-18T14:38:49.207000
transporte mercancia,Atlantic Distribution,PG,Polígono,Industrial Valle de Guimar,0,38509.0,38004,Arafo,PG GUIMAR MZ 12,,,922826105.0,922539163.0,-16.36446175,28.3343152,2016-05-09T12:45:15.374000,2016-11-09T09:37:12.779000
transporte mercancia,Auriomar Transporte,CL,Calle,Plasencia,169,38639.0,38035,San Miguel,Z I Llano Del Camello,,,922822227.0,,-16.62179534,28.05252986,2017-02-15T11:40:07.893000,2017-02-16T13:51:26.067000
transporte guagua,Autobuses Domingo Conrado Plasencia,CL,Calle,Hipotenusa,23,38632.0,38006,Arona,Pg Costa del Silencio,,transportesconrado@hotmail.com,922794004.0,922733679.0,-16.63933485,28.0295467,2016-05-09T12:45:15.374000,2016-06-23T10:14:39.701000
transporte guagua,Autobuses Gomera Tours,AV,Avenida,Modesto Hernandez Gonzalez,68,38639.0,38035,San Miguel,P I Las Chafiras,,,922736052.0,,-16.62162506,28.04897753,2017-02-15T11:40:07.893000,2018-04-04T09:17:16.284000
transporte guagua,Autobuses Gomera Tours,AV,Avenida,Modesto Hernandez Gonzalez,68,38639.0,38035,San Miguel,P I Las Chafiras,,,922736052.0,,-16.62121537,28.04901878,2017-02-15T11:40:07.893000,2018-04-04T09:17:16.284000
transporte guagua,Autobuses Tenerife Tours,CL,Calle,Araujo,35,38639.0,38035,San Miguel,Z I Las Andoriñas,www.autobusestenerifetours.com,info@autobusestenerifetorus.com,922362500.0,,-16.60705565,28.05475823,2017-02-15T11:40:07,2017-02-16T13:51:26.067000
transporte guagua,Autocares Jose Luis Lopez,CL,Calle,Valois,47,38400.0,38028,Puerto de la Cruz,,,,922373974.0,,-16.5442043,28.41577089,2016-05-09T12:45:15.374000,2015-08-04T13:21:58.324000
transporte guagua,Autocares Viajes Teide,AV,Avenida,La Habana,14,38650.0,38006,Arona,Los Cristianos Ed Azahara Lc 2,www.viajesteide.es,info@viajesteide.es,922795864.0,922796652.0,-16.72445677,28.0546693,2016-05-09T12:45:15.374000,2015-08-04T12:41:33.715000
transporte aereo,Binter Canarias,CM,Camino,San Lazaro,158,38206.0,38023,La Laguna,Pg Los Rodeos,www.bintercanarias.com,,922634822.0,,-16.3424936,28.48864559,2016-05-09T12:45:15,2016-07-29T10:30:07.089000
aparcamiento publico,Canaauto Aparcamiento,CL,Calle,Las Industrias,0,38108.0,38023,La Laguna,Z I Las Torres De Taco,www.altadis.com,dircomsp@altadis.com,922257707.0,629569000.0,-16.29292542,28.4488692,2017-02-15T11:40:07.893000,2017-03-10T09:05:18.142000
transporte mercancia,Canarian Moving,CL,Calle,Araujo,0,38639.0,38035,San Miguel,Z I Las Andoriñas,,,696203728.0,,-16.6079446,28.05405153,2017-02-15T11:40:07.893000,2017-03-10T09:05:18.142000
transporte mercancia,Canarias International Forwarding,PG,Polígono,Industrial Valle de Guimar,0,38509.0,38004,Arafo,PG GUIMAR MZ E PARC 6,www.logisticacif.com,info@loisticacif.com,922539127.0,922539365.0,-16.36686364,28.3307175,2016-05-09T12:45:15.374000,2016-11-09T09:37:12.779000
transporte mercancia,Caniber Alfaland Canarias,CL,Calle,Juan De La Cierva,4,38109.0,38032,El Rosario,PI La Campana San Isidro Nv A,www.alfaland.es,jcano.caniber@alfaland.es,922617771.0,922617169.0,-16.3172906,28.41303603,2017-02-15T11:40:07.893000,2017-06-28T12:03:36.848000
aparcamiento publico,Centro Comercial Santa Cruz Carrefour Aparcamiento,CL,Calle,Bentagay,1,38111.0,38038,Santa Cruz de Tenerife,CC Santa Cruz Carrefour,,,,,-16.30113636,28.42641618,2016-05-09T12:45:15.374000,2015-11-25T14:49:15.175000
aparcamiento publico,Centro Comercial Tres de Mayo Aparcamiento,AV,Avenida,Tres de Mayo,7,38003.0,38038,Santa Cruz de Tenerife,CC Tres de Mayo,www.cc3demayo.com,info@cc3demayo.com,922235343.0,922229549.0,-16.25599085,28.45870369,2016-05-09T12:45:15.374000,2016-02-15T10:40:21.581000
transporte mercancia,Coldocks,CL,Calle,Interior Darsena Pesquera,0,38120.0,38038,Santa Cruz de Tenerife,Z I Darsena Norte Puerto,,info@coldocks.com,656457450.0,,-16.19791016,28.49924474,2017-02-15T11:40:07.893000,2017-03-10T09:05:18.142000
transporte guagua,Compañia de Transportes Anaga,CL,Calle,Camelia,8,38107.0,38038,Santa Cruz de Tenerife,Laderitas del Pilar,,,922620113.0,,-16.32269555,28.42365451,2016-05-09T12:45:15.374000,2015-08-04T10:46:09.756000
transporte mercancia,Comunicacion y Logistica Canarias,CL,Calle,Tijarafe,0,38108.0,38023,La Laguna,P I Los Majuelos Edificio Multiusos,www.logisticacanaria.es,,902999727.0,,-16.29900325,28.46089963,2017-02-15T11:40:07.893000,2018-12-13T14:07:50.160000
transporte taxi,Cooperativa de Taxi Arona,CL,Calle,Infanta Elena,28,38632.0,38006,Arona,Pg Cho,,,922720708.0,0.0,-16.65122408,28.04953251,2016-05-09T12:45:15.374000,2017-05-15T09:48:44.425000
transporte sociosanitario,Cruz Roja - Puesto de Ambulancias,CL,Calle,El Carmen,8,38580.0,38005,Arico,Villa de Arico,www.cruzroja.es,,,,-16.50032,28.16507099,2016-05-09T12:45:15.374000,2023-03-10T14:08:31.968000
transporte sociosanitario,Cruz Roja - Puesto de Ambulancias,CL,Calle,San Lucas,60,38002.0,38038,Santa Cruz de Tenerife,,www.cruzroja.es,tenerife@cruzroja.es,922282482.0,922246744.0,-16.2524028,28.46883325,2016-05-09T12:45:15.374000,2023-03-10T14:10:57.997000
transporte sociosanitario,Cruz Roja - Puesto de Ambulancias,AV,Avenida,La Constitucion,0,38509.0,38011,Candelaria,El Pozo,www.cruzroja.es,candelaria@cruzroja.es,922500010.0,,-16.36907396,28.35765669,2016-05-09T12:45:15.374000,2023-03-10T14:10:57.997000
transporte maritimo,Delfin Lines Canarias,CL,Calle,Transversal 1 Darsena Pesquera,0,38120.0,38038,Santa Cruz de Tenerife,Z I Darsena Norte Puerto,,,922591143.0,,-16.20134334,28.49896691,2017-02-15T11:40:07.893000,2017-03-10T09:05:18.142000
transporte mercancia,Directrans Express,CL,Calle,Laura Grote De La Puerta,2,38110.0,38038,Santa Cruz de Tenerife,P I El Mayorazgo Edificio Alex,www.directransexpress.com,,922265544.0,922265569.0,-16.28549852,28.44336342,2017-02-15T11:40:07.893000,2017-02-16T13:51:26.067000
transporte mercancia,Directrans Express,CL,Calle,Laura Grote De La Puerta,16,38110.0,38038,Santa Cruz de Tenerife,P I El Mayorazgo Edificio Alex,www.directransexpress.com,,922265544.0,922265569.0,-16.28545162,28.4432432,2017-02-15T11:40:07.893000,2017-02-16T13:51:26.067000
transporte mercancia,Directrans Express,CL,Calle,Laura Grote De La Puerta,0,38110.0,38038,Santa Cruz de Tenerife,P I El Mayorazgo Edificio Alex,www.directransexpress.com,,922265544.0,922265569.0,-16.28547254,28.44329682,2017-02-15T11:40:07.893000,2017-03-10T09:05:18.142000
aparcamiento publico,Discoteca Audade Aparcamiento,CL,Calle,Fernando Arozena Quinterio,3,38009.0,38038,Santa Cruz de Tenerife,P I Costa Sur Buenos Aires,www.asaudade.es,info@asaudade.es,922237830.0,922237831.0,-16.26825332,28.4543735,2017-02-15T11:40:07.893000,2017-02-16T13:51:26.067000
transporte mercancia,Escaleras,CL,Calle,Panama,0,38009.0,38038,Santa Cruz de Tenerife,P I Costa Sur Buenos Aires Edificio Luna,www.tip-sa.com,tenerife@tip-sa.com,922591164.0,922231562.0,-16.26672431,28.45448808,2017-02-15T11:40:07.893000,2017-03-10T09:05:18.142000
transporte guagua,Esquivel Bus,CL,Calle,Principe Pelinor,3,38670.0,38001,Adeje,,www.esquivelbus.com,info@esquivelbus.com,922710252.0,922710380.0,-16.72467774,28.12322045,2016-05-09T12:45:15,2016-11-16T14:06:37.136000
estacion guaguas,Estacion de Guaguas,CL,Calle,El Pozo,14,38400.0,38028,Puerto de la Cruz,,,,922381807.0,,-16.55343527,28.41434645,2016-05-09T12:45:15.374000,2015-08-04T13:21:58.324000
estacion guaguas,Estacion de Guaguas,CL,Calle,Las Calzadas,3,38600.0,38017,Granadilla de Abona,,,,922770606.0,,-16.57742518,28.11896504,2016-05-09T12:45:15.374000,2015-08-04T11:56:42.718000
estacion guaguas,Estacion de Guaguas,AV,Avenida,Santa Cruz,51,38500.0,38020,Güimar,,,,922511665.0,,-16.40843991,28.31895235,2016-05-09T12:45:15.374000,2016-11-08T13:05:19.248000
estacion guaguas,Estacion de Guaguas,CL,Calle,La Cancela,1,38480.0,38010,Buenavista del Norte,,www.titsa.com,,922127436.0,,-16.848459,28.37039399,2016-05-09T12:45:15.374000,2023-10-18T14:39:08.082000
estacion guaguas,Estacion de Guaguas,AV,Avenida,Los Pueblos,10,38660.0,38001,Adeje,Py Americas,,,922795427.0,,-16.72803,28.07152899,2016-05-09T12:45:15.374000,2017-12-13T12:59:37.304000
estacion guaguas,Estacion de Guaguas,AV,Avenida,Francisco Miranda,8,38430.0,38022,Icod de los Vinos,,,,922811304.0,,-16.72000284,28.36926307,2016-05-09T12:45:15.374000,2015-08-04T13:09:51.115000
estacion guaguas,Estacion de Guaguas,RB,Rambla,Los Menceyes,4,38509.0,38011,Candelaria,Estacion de Guaguas,,,,,-16.36754171,28.36283977,2016-05-09T12:45:15.374000,2017-11-03T14:26:30.429000
estacion guaguas,Estacion de Guaguas,LG,"Lugar, zona",Acceso Autovia TF 1 Norte,13,38350.0,38043,Tacoronte,,,,922561807.0,,-16.415701,28.47551399,2016-05-09T12:45:15.374000,2017-12-13T12:59:37.304000
estacion guaguas,Estacion de Guaguas Intercambiador,CL,Calle,Fomento,2,38003.0,38038,Santa Cruz de Tenerife,Los Llanos,www.titsa.com,,922218122.0,922217263.0,-16.25196223,28.4593538,2016-05-09T12:45:15,2017-12-13T12:56:07.308000
estacion guaguas,Estacion de Guaguas Intercambiador,AV,Avenida,Angel Guimera Jorge,5,38206.0,38023,La Laguna,Intercambiador de Transportes La Laguna,,,922259412.0,,-16.31692302,28.48029335,2016-05-09T12:45:15.374000,2015-08-25T12:56:14.566000
estacion guaguas,Estacion Guaguas Arafo,AV,Avenida,Reyes de España,29,38550.0,38004,Arafo,,,,,,-16.41959588,28.33836066,2016-05-17T13:04:36.912000,2016-06-28T07:43:49.135000
estacion guaguas,Estacion Guaguas Guia de Isora,AV,Avenida,Isora,3,38680.0,38019,Guía de Isora,,,,,,-16.77614277,28.20792256,2017-06-19T13:56:57.252000,2017-06-21T10:16:11.887000
transporte mercancia,Eurotener,CL,Calle,La Campana,4,38109.0,38032,El Rosario,PI La Campana San Isidro,www.herasatenerife.com,eurotener@tenerife.com,922629650.0,922629799.0,-16.3195537,28.41850525,2017-02-15T11:40:07.893000,2017-06-28T12:03:36.848000
transporte maritimo,Fred Olsen,CL,Calle,Subida Al Mayorazco,4,38110.0,38038,Santa Cruz de Tenerife,P I El Mayorazgo,www.fredolsen.es,,902100107.0,,-16.28222078,28.44397882,2017-02-15T11:40:07.893000,2017-02-16T13:51:26.067000
transporte maritimo,Fred Olsen,CL,Calle,Benjamin Franklin,0,38109.0,38032,El Rosario,PI La Campana San Isidro,www.fredolsen.es,almacenc@hotmail.com,922618206.0,922618206.0,-16.3168551,28.41175613,2017-02-15T11:40:07.893000,2017-06-28T12:03:36.848000
transporte maritimo,Fred Olsen Express,CL,Calle,Espigon Benchijigua,9,38650.0,38006,Arona,Los Cristianos,www.fredolsen.es,reservas@fredolsen.es,902100107.0,0.0,-16.72047471,28.04989212,2016-05-09T12:45:15.374000,2015-08-04T12:41:33.715000
transporte mercancia,From-To,CL,Calle,Via de Servicio Darsena Pesquera,24,38120.0,38038,Santa Cruz de Tenerife,Z I Darsena Norte Puerto,www.fromto-sl.com,fromto@from-tosl.com,922549801.0,922591131.0,-16.20213658,28.50010104,2017-02-15T11:40:07.893000,2017-02-20T09:06:03.492000
transporte mercancia,Gmr Canarias,CL,Calle,Jesus Hernandez Guzman,2,38110.0,38038,Santa Cruz de Tenerife,Z I Mercatenerife C,www.gmrcanarias.com,info@gmrcanarias.com,902377777.0,922236109.0,-16.27947,28.44452831,2017-02-15T11:40:07.893000,2017-02-16T13:51:26.067000
transporte mercancia,GMR Canarias,CL,Calle,Subida Al Mayorazco,24,38110.0,38038,Santa Cruz de Tenerife,P I El Mayorazgo B Edificio Arca,www.gmrcanarias.com,,922236048.0,922236109.0,-16.28609691,28.44528536,2017-02-15T11:40:07.893000,2017-06-28T10:23:23.167000
transporte mercancia,Gregorio Pack,CR,Carretera,Hoya Fria,5,38110.0,38038,Santa Cruz de Tenerife,Z I Mercatenerife,www.viagregorio.es,viagregorio@viagregorio.es,922619077.0,922214040.0,-16.28020023,28.44400558,2017-02-15T11:40:07.893000,2017-02-20T09:06:03.492000
transporte mercancia,Gruas y Transportes Juan Pedro,CL,Calle,Los Cercados,168,38380.0,38051,La Victoria,,,anni.73@hotmail.com,922581680.0,,-16.45987479,28.43102287,2016-05-09T12:45:15,2018-01-19T14:15:15.175000
transporte mercancia,Herasa Tenerife,CL,Calle,La Campana,4,38109.0,38032,El Rosario,PI La Campana San Isidro,www.herasatenerife.com,jose.fragoso@herasatenerife.com,922629650.0,922629799.0,-16.31955394,28.4185051,2017-02-15T11:40:07.893000,2018-12-13T08:54:55.321000
transporte mercancia,Hermanos Diaz Melian,CL,Calle,Miguel Hernandez Gomez,3,38639.0,38035,San Miguel,P I Las Chafiras,www.teidetours.com,comercial@teidetours.com,922735453.0,922735266.0,-16.61720792,28.04962082,2017-02-15T11:40:07.893000,2018-04-04T09:16:29.864000
transporte guagua,Herrerabus,CL,Calle,Ingenios Azucareros,15,38312.0,38026,La Orotava,P I San Jeronimo,,,922324304.0,,-16.54244918,28.39613299,2017-02-15T11:40:07.893000,2017-02-16T13:51:26.067000
aparcamiento publico,Hidraulica Tinerfeña Aparcamiento,CL,Calle,Subida Al Mayorazco,10,38110.0,38038,Santa Cruz de Tenerife,P I El Mayorazgo,www.hidraulica.com,info@hidraulica.com,922211033.0,922225304.0,-16.28399808,28.44560481,2017-02-15T11:40:07.893000,2017-03-29T07:50:43.137000
transporte sociosanitario,Iscan Servicios Integrales,CL,Calle,Carpinteria,0,38312.0,38026,La Orotava,P I San Jeronimo,www.iscan.si,general@iscan.si,902352828.0,,-16.54179663,28.39380176,2017-02-15T11:40:07.893000,2023-03-10T14:13:18.839000
transporte mercancia,JJ Bercedo,CL,Calle,Isidoro Luz Carpenter,0,38009.0,38038,Santa Cruz de Tenerife,Z I Chamberi,www.cayco.es,tenerife@cayco.es,922203766.0,922215689.0,-16.27358991,28.45049921,2017-02-15T11:40:07.893000,2017-03-10T09:05:18.142000
transporte mercancia,JJ Bercedo,CL,Calle,Isidoro Luz Carpenter,0,38009.0,38038,Santa Cruz de Tenerife,Z I Chamberi,www.cayco.es,tenerife@cayco.es,922203766.0,922215689.0,-16.27338946,28.45050448,2017-02-15T11:40:07.893000,2017-03-10T09:05:18.142000
aparcamiento publico,Koala Sur Aparcamiento,CL,Calle,Jose Bello Feo,0,38639.0,38035,San Miguel,P I Las Chafiras,,,922733297.0,,-16.61874455,28.04936855,2017-02-15T11:40:07.893000,2018-04-04T09:19:31.187000
transporte guagua,Leon Tenerife Tours,CL,Calle,Tinerfe El Grande,25,38670.0,38001,Adeje,,www.leontenerifetours.com,info@leontenerifetours.com,922711864.0,922780893.0,-16.72596093,28.11837147,2016-08-25T08:00:12.035000,2016-08-31T13:13:59.155000
transporte mercancia,Logistica Raser,PG,Polígono,Industrial Valle de Guimar,0,38509.0,38004,Arafo,PG GUIMAR MZ D PARC 2-3,,,,,-16.37114724,28.329506,2018-03-13T11:58:51.933000,2018-03-13T11:58:51.933000
transporte mercancia,Magens Mudanzas Internacionales,CL,Calle,Islas Filipinas,5,38009.0,38038,Santa Cruz de Tenerife,P I Costa Sur Buenos Aires,www.amagens.com,magens@amagens.com,922233075.0,922225960.0,-16.26767681,28.45456293,2017-02-15T11:40:07.893000,2017-02-16T13:51:26.067000
transporte tranvia,Metropolitano de Tenerife,CR,Carretera,General TF 194 La Cuesta Taco,124,38108.0,38023,La Laguna,Z I Las Torres De Taco,www.metrotenerife.com,comercial@metrotenerife.com,922024800.0,922574254.0,-16.29497396,28.45094866,2017-02-15T11:40:07.893000,2017-06-21T10:50:43.160000
transporte mercancia,Mudanzas Magens,CL,Calle,Islas Filipinas,5,38009.0,38038,Santa Cruz de Tenerife,P I Costa Sur Buenos Aires,www.amagens.com,magens@amagens.com,922233075.0,922225960.0,-16.26767681,28.45456293,2017-02-15T11:40:07.893000,2017-02-16T13:51:26.067000
transporte maritimo,Naviera Armas,CL,Calle,Espigon Benchijigua,9,38650.0,38006,Arona,Los Cristianos,www.navieraarmas.com,,902456500.0,0.0,-16.7205294,28.04990337,2016-05-09T12:45:15.374000,2015-08-04T12:41:33.715000
transporte mercancia,Paqueteria ParaTodaCuba,AV,Avenida,Santa Cruz,66,38611.0,38017,Granadilla de Abona,San Isidro CC Atogo Lc 02,,,922173073.0,,-16.558927,28.08018499,2016-05-09T12:45:15.374000,2016-11-29T10:10:04.174000
transporte mercancia,Parada de Camiones San Cristobal,CL,Calle,Espaldon Darsena Pesquera,0,38120.0,38038,Santa Cruz de Tenerife,Z I Darsena Norte Puerto,,,922591197.0,,-16.19827258,28.49825515,2017-02-15T11:40:07.893000,2017-05-17T12:45:06.357000
transporte taxi,Parada de Taxis,CL,Calle,Aceviño,2,38400.0,38028,Puerto de la Cruz,Ur La Paz,,,922378999.0,,-16.53877833,28.41452314,2016-11-21T07:56:53,2017-05-17T12:45:06.357000
transporte taxi,Parada de Taxis,AV,Avenida,Hermanos Fernandez Perdigon,1,38400.0,38028,Puerto de la Cruz,,,,,,-16.55262508,28.41438263,2017-12-14T12:18:53.670000,2017-12-14T12:18:53.670000
transporte taxi,Parada de Taxis,AV,Avenida,Familia Bethencourt y Molina,16,38400.0,38028,Puerto de la Cruz,,,,,,-16.54482713,28.4161206,2017-12-14T12:12:36,2017-12-14T12:12:36
transporte taxi,Parada de Taxis,AV,Avenida,Colon,18,38400.0,38028,Puerto de la Cruz,,,,,,-16.54199961,28.41838999,2017-12-14T12:12:36,2017-12-14T12:12:36
transporte taxi,Parada de Taxis,AV,Avenida,Aguilar y Quesada,0,38400.0,38028,Puerto de la Cruz,Pz Viera y Clavijo,,,,,-16.54372812,28.41547376,2017-12-14T12:12:36.193000,2017-12-14T12:12:36.193000
transporte taxi,Parada de Taxis,PZ,"Plaza, plazoleta",Charco,0,38400.0,38028,Puerto de la Cruz,,,,,,-16.55101988,28.41694848,2016-11-25T14:48:36.770000,2017-05-17T12:45:06.357000
transporte taxi,Parada de Taxis,AV,Avenida,Villanueva,0,38440.0,38018,La Guancha,,,,922828120.0,,-16.65327166,28.37408712,2016-05-09T12:45:15.374000,2023-10-18T14:39:08.082000
transporte taxi,Parada de Taxis,CR,Carretera,General TF 152 Norte,41,38350.0,38043,Tacoronte,La Estacion,,,922560635.0,922570800.0,-16.41506099,28.47705007,2016-05-09T12:45:15.374000,2017-12-14T10:08:18.336000
transporte taxi,Parada de Taxis,PZ,"Plaza, plazoleta",Juan Gonzalez de la Torre,1,38450.0,38015,Garachico,,,,922830056.0,,-16.76572555,28.372288,2016-05-09T12:45:15.374000,2015-08-04T13:05:11.790000
transporte taxi,Parada de Taxis,CL,Calle,Periodista Ernesto Salcedo,13,38509.0,38011,Candelaria,Plazoleta,,,922500353.0,,-16.37085807,28.3551586,2018-01-19T11:52:32,2018-02-07T12:42:36.032000
transporte taxi,Parada de Taxis,AV,Avenida,Maritima,165,38530.0,38011,Candelaria,Las Caletillas Frente  Ht Catalonia Punta del Rey,,,,,-16.36208736,28.37733772,2018-01-19T11:52:32,2018-01-22T07:54:10.598000
transporte taxi,Parada de Taxis,AV,Avenida,Bruselas,6,38660.0,38001,Adeje,Fañabe Rotonda Parque del sol,,,,,-16.73514663,28.08947028,2017-08-10T09:56:34.315000,2017-12-14T10:07:35.228000
transporte taxi,Parada de Taxis,PZ,"Plaza, plazoleta",La Luz,0,38470.0,38042,Los Silos,,,,608668193.0,922840164.0,-16.81772459,28.36544486,2016-05-09T12:45:15.374000,2017-12-14T10:07:35.228000
transporte taxi,Parada de Taxis,CR,Carretera,General TF 351 San Jose,40,38428.0,38034,San Juan de la Rambla,San Jose,,,,,-16.64538947,28.37937354,2016-05-09T12:45:15.374000,2016-05-24T11:46:13.881000
transporte taxi,Parada de Taxis,AV,Avenida,Los Menceyes,381,38320.0,38023,La Laguna,La Cuesta,,,,,-16.28657072,28.46815316,2016-05-09T12:45:15,2018-05-29T10:33:05.484000
transporte taxi,Parada de Taxis,PZ,"Plaza, plazoleta",Islas Canarias,0,38108.0,38023,La Laguna,Taco,,,,,-16.2974848,28.4465046,2016-05-09T12:45:15.374000,2016-11-09T09:37:12.779000
transporte taxi,Parada de Taxis,CL,Calle,Don Quijote,2,38203.0,38023,La Laguna,,,,,,-16.3236366,28.48712573,2016-05-09T12:45:15.374000,2015-08-04T13:59:50.927000
transporte taxi,Parada de Taxis,CL,Calle,Inocencia Garcia,0,38300.0,38026,La Orotava,Iglesia La Concepcion,,,922323737.0,,-16.52517638,28.39008271,2018-01-22T08:57:45,2018-01-22T08:57:45
transporte taxi,Parada de Taxis,CL,Calle,La Alhondiga,0,38480.0,38010,Buenavista del Norte,,,,696568775.0,,-16.85105151,28.37194128,2016-05-09T12:45:15.374000,2023-10-18T14:38:49.207000
transporte taxi,Parada de Taxis,CR,Carretera,General TF 28 Sur,102,38620.0,38035,San Miguel,,,,,,-16.61643769,28.09963053,2016-05-09T12:45:15.374000,2015-08-05T07:32:57.630000
transporte taxi,Parada de Taxis,CR,Carretera,España TF 217,20,38390.0,38039,Santa Úrsula,,,,,,-16.49065481,28.42534447,2016-05-09T12:45:15,2017-02-09T13:17:21
transporte taxi,Parada de Taxis,AV,Avenida,Canarias,4,38300.0,38026,La Orotava,,,,,,-16.52229502,28.39182081,2016-05-09T12:45:15,2015-09-07T13:58:33
transporte taxi,Parada de Taxis,CL,Calle,Alvaro Rodriguez Lopez,13,38005.0,38038,Santa Cruz de Tenerife,CC Meridiano,,,,,-16.25819026,28.45765832,2016-05-09T12:45:15,2017-12-14T07:58:07.051000
transporte taxi,Parada de Taxis,AL,"Alameda, aldea",Duque Santa Elena,0,38002.0,38038,Santa Cruz de Tenerife,Pz España,,,,,-16.24772402,28.46865841,2016-05-09T12:45:15,2017-12-14T07:49:45.327000
transporte taxi,Parada de Taxis,AV,Avenida,Bravo Murillo,2,38003.0,38038,Santa Cruz de Tenerife,,,,,,-16.24750212,28.46613938,2016-05-09T12:45:15,2015-11-10T10:52:31
transporte taxi,Parada de Taxis,CL,Calle,Doctor Jose Naveiras,28,38001.0,38038,Santa Cruz de Tenerife,,,,,,-16.25324936,28.47349272,2016-05-09T12:45:15,2016-05-04T07:33:57
transporte taxi,Parada de Taxis,CL,Calle,Calvario,4,38300.0,38026,La Orotava,,,,,,-16.52258578,28.39163736,2016-05-09T12:45:15,2018-03-20T10:44:54.401000
transporte taxi,Parada de Taxis,CL,Calle,Arona,3,38008.0,38038,Santa Cruz de Tenerife,Bo Salud,,,,,-16.27912207,28.47041976,2017-02-20T11:55:39,2017-03-15T12:24:41
transporte taxi,Parada de Taxis,CL,Calle,San Juan Bosco,0,38300.0,38026,La Orotava,Estacion de Guaguas,,,922323737.0,,-16.51954494,28.39373716,2018-01-22T08:57:45.634000,2018-01-22T08:57:45.634000
transporte taxi,Parada de Taxis,CL,Calle,El Pilar,2,38002.0,38038,Santa Cruz de Tenerife,,,,,,-16.25094217,28.46816866,2016-05-09T12:45:15,2017-12-14T07:58:07.051000
transporte taxi,Parada de Taxis,CR,Carretera,General TF 28 Sur,4,38509.0,38004,Arafo,La Hidalga,,,,,-16.39529749,28.3336954,2016-05-09T12:45:15,2016-05-18T10:05:03.287000
transporte taxi,Parada de Taxis,PZ,"Plaza, plazoleta",Weyler,0,38003.0,38038,Santa Cruz de Tenerife,,,,,,-16.25541518,28.46758675,2016-05-09T12:45:15.374000,2016-11-09T09:37:12.779000
transporte taxi,Parada de Taxis,CL,Calle,General Gutierrez,2,38003.0,38038,Santa Cruz de Tenerife,,,,,,-16.24795675,28.46624879,2016-05-09T12:45:15.374000,2015-11-10T10:52:31.023000
transporte taxi,Parada de Taxis,CL,Calle,Heliodoro Rodriguez Lopez,5,38005.0,38038,Santa Cruz de Tenerife,,,,,,-16.26203875,28.46168596,2016-05-09T12:45:15.374000,2015-08-04T10:26:16.678000
transporte taxi,Parada de Taxis,CL,Calle,Bentagay,1,38111.0,38038,Santa Cruz de Tenerife,CC Santa Cruz Carrefour,,,,,-16.30044673,28.42606539,2016-05-09T12:45:15.374000,2015-08-04T10:47:03.881000
transporte taxi,Parada de Taxis Alisios,CL,Calle,Tamaragua,57,38111.0,38038,Santa Cruz de Tenerife,Los Alisios,,,,,-16.30565335,28.42641608,2016-10-13T10:10:43,2016-11-28T14:30:13
transporte taxi,Parada de Taxis Ambulatorio,CL,Calle,Tome Cano,0,38005.0,38038,Santa Cruz de Tenerife,,,,,,-16.26208078,28.4587542,2016-05-09T12:45:15,2017-12-14T09:32:10.802000
transporte taxi,Parada de Taxis Anaga,CL,Calle,Carlos J R Hamilton,10,38001.0,38038,Santa Cruz de Tenerife,Rs Anaga,,,,,-16.24489108,28.47877912,2016-05-09T12:45:15,2016-11-23T09:43:03
transporte taxi,Parada de Taxis Callao Salvaje,AV,Avenida,El Jable,43,38678.0,38001,Adeje,Callao Salvaje,,,,,-16.78135016,28.12965403,2017-05-17T12:45:06,2017-06-16T11:32:18.928000
transporte taxi,Parada de Taxis Casas Amarillas,CL,Calle,Mendez Nuñez,64,38002.0,38038,Santa Cruz de Tenerife,,,,,,-16.25266163,28.47168144,2016-05-09T12:45:15,2017-12-14T07:59:17.425000
transporte taxi,Parada de Taxis El Corte Ingles,AV,Avenida,Tres de Mayo,5,38003.0,38038,Santa Cruz de Tenerife,,,,,,-16.25400403,28.45949378,2016-05-09T12:45:15,2018-01-30T14:23:34.121000
transporte taxi,Parada de Taxis El Sobradillo,CR,Carretera,General TF 272 El Sobradillo,1,38108.0,38038,Santa Cruz de Tenerife,Barranco Grande,,,,,-16.30601747,28.43766845,2016-05-16T10:30:09,2016-05-16T10:31:25
transporte taxi,Parada de Taxis Hospital La Candelaria,CL,Calle,Maestro Borguño,1,38010.0,38038,Santa Cruz de Tenerife,Las Delicias Hospital La Candelaria,,,,,-16.28474295,28.44972649,2016-05-09T12:45:15,2018-01-18T14:20:17.443000
transporte taxi,Parada de Taxis Hospital Universitario,CR,Carretera,General TF 194 La Cuesta Taco,0,38320.0,38023,La Laguna,Hospital Universitario de Canarias,,,,,-16.29263361,28.45667128,2017-01-27T09:18:39,2017-01-27T09:18:39
transporte taxi,Parada de Taxis Hotel Mencey,CL,Calle,Doctor Jose Naveiras,40,38001.0,38038,Santa Cruz de Tenerife,,,,,,-16.25386821,28.47471137,2016-05-09T12:45:15,2016-05-04T07:33:57
transporte taxi,Parada de Taxis Intercambiador,AV,Avenida,Tres de Mayo,3,38003.0,38038,Santa Cruz de Tenerife,Intercambiador de Transportes,,,,,-16.25197422,28.45976045,2016-05-09T12:45:15,2018-01-30T14:23:34.121000
transporte taxi,Parada de Taxis La Gallega,AV,Avenida,Litre,1,38107.0,38038,Santa Cruz de Tenerife,La Gallega Rt Isla de La Palma,,,,,-16.32002276,28.43549837,2017-12-14T09:39:12.634000,2017-12-14T09:39:12.634000
transporte taxi,Parada de Taxis Las Mimosas,CL,Calle,Enrique Wolfson,10,38006.0,38038,Santa Cruz de Tenerife,,,,,,-16.2588517,28.47177263,2016-05-09T12:45:15,2015-08-05T07:55:58
transporte taxi,Parada de Taxis Las Teresitas,LG,"Lugar, zona",Playa Las Teresitas,0,38120.0,38038,Santa Cruz de Tenerife,San Andres Playa,,,0.0,0.0,-16.18858583,28.50752393,2016-05-09T12:45:15,2017-12-14T09:49:01
transporte taxi,Parada de Taxis Loro Parque,AV,Avenida,Loro Parque,1,38400.0,38028,Puerto de la Cruz,Punta Brava,,,,,-16.56476539,28.41004149,2016-11-18T14:09:19,2016-11-18T14:09:19
transporte taxi,Parada de Taxis Los Gladiolos,CL,Calle,Ganivet,5,38007.0,38038,Santa Cruz de Tenerife,,,,,,-16.26827417,28.46038698,2016-05-09T12:45:15,2015-08-04T10:37:38
transporte taxi,Parada de Taxis Los Majuelos,AV,Avenida,Los Majuelos,30,38107.0,38038,Santa Cruz de Tenerife,El Sobradillo,,,,,-16.31355079,28.44230195,2016-05-09T12:45:15,2016-05-12T09:55:45
transporte taxi,Parada de Taxis Llano Blanco,CR,Carretera,General TF 28 Sur,37,38109.0,38032,El Rosario,Llano Blanco,,,,,-16.328171,28.40981299,2016-05-09T12:45:15,2017-12-14T09:57:11.661000
transporte taxi,Parada de Taxis Mercado,CL,Calle,Darias y Padron,2,38003.0,38038,Santa Cruz de Tenerife,Mercado Nuestra Señora de Africa,,,,,-16.25249409,28.46276008,2016-05-09T12:45:15,2018-01-22T13:05:30.010000
transporte taxi,Parada de Taxis Py Paraiso,CL,Calle,El Horno,33,38678.0,38001,Adeje,Py Paraiso,,,,,-16.7771242,28.1247811,2016-05-09T12:45:15,2018-03-02T11:56:08.870000
transporte taxi,Parada de Taxis Py Paraiso 2,CL,Calle,Idafe,5,38678.0,38001,Adeje,Py Paraiso,,,,,-16.76962536,28.11952703,2016-05-09T12:45:15.374000,2017-05-17T12:45:06.357000
transporte taxi,Parada de Taxis Quiron,CL,Calle,Poeta Rodriguez Herrera,1,38006.0,38038,Santa Cruz de Tenerife,,,,,,-16.26651345,28.4709173,2016-05-09T12:45:15,2015-08-05T07:55:58
transporte taxi,Parada de Taxis Radazul Bajo,CL,Calle,Valdes,2,38109.0,38032,El Rosario,Radazul Bajo Rotonda,,,659641115.0,,-16.322948,28.40486299,2016-05-09T12:45:15,2017-12-14T09:56:33.287000
transporte taxi,Parada de Taxis Radio Taxi Acentejo,CR,Carretera,General TF 217 Norte,44,38380.0,38051,La Victoria,,,,922581736.0,,-16.46637525,28.43615697,2016-05-09T12:45:15.374000,2015-11-19T14:57:17.557000
transporte taxi,Parada de Taxis San Andres,CL,Calle,Dique,11,38120.0,38038,Santa Cruz de Tenerife,San Andres,,,0.0,0.0,-16.19211887,28.50389473,2016-05-09T12:45:15,2017-12-14T09:53:55.806000
transporte taxi,Parada de Taxis San Jeronimo Taco,AV,Avenida,Taco,150,38108.0,38023,La Laguna,Taco Pz San Jeronimo,,,,,-16.29780623,28.44829623,2016-05-09T12:45:15,2017-10-30T12:29:11
transporte taxi,Parada de Taxis Santa Clara,CL,Calle,Doctor Corviniano Rodriguez Lopez,1,38010.0,38038,Santa Cruz de Tenerife,Ofra,,,,,-16.2870502,28.4543051,2017-12-14T08:47:30.494000,2017-12-14T08:47:30.494000
transporte taxi,Parada de Taxis Taco,AV,Avenida,Taco,186,38108.0,38023,La Laguna,Taco,,,,,-16.29928249,28.44695416,2016-05-09T12:45:15,2018-01-15T12:18:54.482000
transporte taxi,Parada de Taxis Vistabella,CL,Calle,Sor Maria Jesus,3,38320.0,38038,Santa Cruz de Tenerife,Vistabella,,,,,-16.28273093,28.46495315,2016-05-09T12:45:15,2017-10-03T12:30:42
transporte taxi,Parafda Taxis San Pedro,CR,Carretera,General TF 272 El Sobradillo,65,38107.0,38038,Santa Cruz de Tenerife,El Sobradillo,taxisanpedro.com,,922310000.0,,-16.31584545,28.44119388,2018-01-30T14:16:12.742000,2018-01-30T14:16:12.742000
aparcamiento publico,Parking Bingo Canarias,CL,Calle,Candelaria,13,38003.0,38038,Santa Cruz de Tenerife,,,,,,-16.24876022,28.46542333,2016-05-09T12:45:15.374000,2015-08-04T10:22:19.650000
aparcamiento publico,Parking El Mirador,CL,Calle,La Hondura,1,38683.0,38040,Santiago del Teide,Puerto de Santiago,,,,,-16.84094991,28.23996635,2017-11-22T08:36:38.594000,2017-11-22T08:36:38.594000
aparcamiento publico,Parking Weyler,CL,Calle,Angel Guimera,sn,38003.0,38038,Santa Cruz de Tenerife,Entrada Peatones,apk2gestion.com,info@apk2.es,912302032.0,,-16.25439249,28.4670082,2022-04-22T12:09:52.592000,2022-04-22T12:09:52.592000
transporte taxi,Radio Taxi,Cl,Calle,San Agustin,sn,38410.0,38031,Los Realejos,,,,922346096.0,,-16.58540384,28.38887919,2023-10-18T12:08:17.876000,2023-10-18T12:08:17.876000
transporte taxi,Radio Taxi,Cr,Carretera,Nueva,,38413.0,38031,Los Realejos,,,,922346096.0,,-16.56979231,28.37774153,2023-10-18T12:08:17.876000,2023-10-18T12:08:17.876000
transporte aereo,Red Canaria de Servicios Aereosu,CL,Calle,Fernando Arozena Quinterio,5,38009.0,38038,Santa Cruz de Tenerife,P I Costa Sur Buenos Aires,www.optitrans sl,info@redcan.es,922657884.0,922204013.0,-16.26850634,28.45396999,2017-02-15T11:40:07.893000,2017-02-16T13:51:26.067000
transporte mercancia,Red Canarias de Servicios Aereos,CR,Carretera,Hoya Fria,9,38110.0,38038,Santa Cruz de Tenerife,Z I Mercatenerife,www.maresa.es,,922230807.0,922227907.0,-16.28162242,28.44216204,2017-02-15T11:40:07.893000,2018-12-13T08:54:55.321000
transporte mercancia,Red Red Canarias de Servicios Aereos,CR,Carretera,Hoya Fria,9,38110.0,38038,Santa Cruz de Tenerife,Z I Mercatenerife,www.maresa.es,,922230807.0,922227907.0,-16.28182178,28.44195002,2017-02-15T11:40:07.893000,2018-12-13T08:54:55.321000
transporte mercancia,Rhenus Tetrans Canarias,CL,Calle,Antonio Lecuona Hardisson,1,38009.0,38038,Santa Cruz de Tenerife,Z I Chamberi,www.rhenustetrans.com,comercialtenerife@tetrans.com,922204851.0,922204806.0,-16.27398097,28.44890946,2017-02-15T11:40:07.893000,2018-01-30T14:23:34.121000
transporte mercancia,Rhenus Tetrans Canariasu,CL,Calle,Isidoro Luz Carpenter,0,38009.0,38038,Santa Cruz de Tenerife,Z I Chamberi,www.rhenustetrans.com,dactenerife@tetrans.com,922204851.0,922221491.0,-16.27287659,28.45060907,2017-02-15T11:40:07.893000,2017-03-10T09:05:18.142000
transporte mercancia,Rhenus Tetrans Canariasu,CL,Calle,Isidoro Luz Carpenter,0,38009.0,38038,Santa Cruz de Tenerife,Z I Chamberi,www.rhenustetrans.com,dactenerife@tetrans.com,922204851.0,922221491.0,-16.27290804,28.4504576,2017-02-15T11:40:07.893000,2017-03-10T09:05:18.142000
transporte mercancia,Rhenus Tetrans Canariasu,CL,Calle,Isidoro Luz Carpenter,0,38009.0,38038,Santa Cruz de Tenerife,Z I Chamberi,www.rhenustetrans.com,dactenerife@tetrans.com,922204851.0,922221491.0,-16.27275391,28.45092286,2017-02-15T11:40:07.893000,2017-03-10T09:05:18.142000
transporte guagua,Rocio Bus,CR,Carretera,Vieja TF 213,21,38390.0,38039,Santa Úrsula,La Vera,,rociobus@hotmail.com,922301866.0,,-16.48607738,28.42724686,2016-05-09T12:45:15,2018-04-11T13:18:10.878000
transporte guagua,Salazar Bus,AU,"Autopista, autovía",TF 1 Sur,0,38632.0,38006,Arona,Cho Km 65,,,922734171.0,922734177.0,-16.64744083,28.05280179,2016-05-09T12:45:15.374000,2017-11-14T10:11:49.156000
transporte sociosanitario,Salvaser,CL,Calle,Infanta Elena,26,38632.0,38006,Arona,Pg Cho,www.salvaser.com,salvaser@salvaser.com,922171717.0,0.0,-16.65146959,28.04951815,2016-05-09T12:45:15.374000,2023-03-10T14:06:20.798000
transporte sociosanitario,Salvaser,CL,Calle,Princesa Guajara,7,38611.0,38017,Granadilla de Abona,San Isidro,www.salvaser.com,salvaser@salvaser.com,922393115.0,,-16.55699184,28.07616744,2016-05-09T12:45:15.374000,2023-03-10T14:09:57.920000
transporte sociosanitario,Salvaser,AV,Avenida,Chayofita,38,38650.0,38006,Arona,Los Cristianos,www.salvaser.com,salvaser@salvaser.com,822608000.0,,-16.72189656,28.0585491,2016-05-09T12:45:15,2023-03-10T14:09:57.920000
transporte guagua,School Bus,AV,Avenida,Eugenio Dominguez Alfonso,1,38660.0,38001,Adeje,Py Americas CC Pueblo Canario Lc 214,,,,,-16.73203128,28.07305523,2016-08-25T08:06:12.843000,2016-08-25T10:26:09.579000
transporte mercancia,Sepet,CL,Calle,Isidoro Luz Carpenter,0,38009.0,38038,Santa Cruz de Tenerife,Z I Chamberi,www.sepet.es,,922897840.0,,-16.27356262,28.45054352,2017-02-15T11:40:07.893000,2017-03-10T09:05:18.142000
transporte sociosanitario,Servican,CL,Calle,Quevedo,1,38005.0,38038,Santa Cruz de Tenerife,Ed La Gran Via Lc 5,asistencia.servicanempresas.com,asistencia@servicanempresas.com,922236740.0,902403404.0,-16.25687333,28.46165237,2016-05-09T12:45:15.374000,2023-03-10T14:10:57.997000
aparcamiento publico,Servicios Especiales Servisa Aparcamiento,AU,"Autopista, autovía",Santa Cruz La Laguna,0,38108.0,38023,La Laguna,Z I Las Torres De Taco Km 4.5,www.barloworld.finanzauto.es,,922626000.0,922611498.0,-16.29178572,28.45193071,2017-02-15T11:40:07.893000,2017-03-10T09:05:18.142000
transporte guagua,Servitrans Arico,CL,Calle,Benitez de Lugo,12,38580.0,38005,Arico,Villa de Arico,,,639046255.0,,-16.50134329,28.16674871,2016-05-09T12:45:15.374000,2015-08-04T11:52:50.127000
transporte taxi,Sociedad Cooperativa de Automoviles SP,CL,Calle,Tafuriaste,1,38400.0,38028,Puerto de la Cruz,Pg Las Arenas,www.puertodelacruzentaxi.com,puertodelacruzentaxi@hotmail.com,922378999.0,,-16.54561747,28.39823165,2016-05-09T12:45:15,2016-11-25T08:59:50.633000
aparcamiento publico,Supermercado Tu Trebol Aparcamiento,CR,Carretera,Hoya Fria,0,38110.0,38038,Santa Cruz de Tenerife,P I El Mayorazgo Centro Comercial Hipertrebol,www.comercialjesuman.es/tu-trebol/,grupojesuman@grupojesuman.es,671690714.0,922220690.0,-16.28440626,28.44154465,2017-02-15T11:40:07.893000,2017-03-10T09:05:18.142000
transporte taxi,Taxi Acosta Perez,CL,Calle,Asomada,15,38480.0,38010,Buenavista del Norte,,,,922127130.0,,-16.85215766,28.37051548,2016-05-09T12:45:15.374000,2015-08-04T13:00:27.513000
transporte taxi,Taxi Radio,CL,Calle,Flor de Pascua,10,38683.0,38040,Santiago del Teide,Los Gigantes,www.taxilosgigantes.com,info@taxilosgigantes.com,922861627.0,,-16.84132724,28.24384086,2016-05-09T12:45:15.374000,2015-11-06T13:30:22.363000
transporte taxi,Taxi Vilaflor,CL,Calle,Santa Catalina,42,38613.0,38052,Vilaflor,,www.taxivilaflor.com,taxivilaflor@gmail.com,682654452.0,,-16.63953708,28.15366549,2016-05-17T10:12:34,2017-12-14T12:09:03.635000
transporte mercancia,Tedote,CL,Calle,Anatolio De Fuentes Garcia,0,38009.0,38038,Santa Cruz de Tenerife,P I Costa Sur Buenos Aires,,,639839399.0,922314441.0,-16.27061478,28.45258876,2017-02-15T11:40:07.893000,2017-03-10T09:05:18.142000
transporte mercancia,Tele Transporte,CL,Calle,Jesus Hernandez Guzman,19,38110.0,38038,Santa Cruz de Tenerife,Z I Mercatenerife Nave 2,,,0.0,,-16.28283558,28.43860565,2017-02-15T11:40:07.893000,2017-02-16T13:51:26.067000
transporte mercancia,Tipsa,CL,Calle,Panama,0,38009.0,38038,Santa Cruz de Tenerife,P I Costa Sur Buenos Aires Edificio Luna,www.tip-sa.com,tenerife@tip-sa.com,922101047.0,922231561.0,-16.26654367,28.45448424,2017-02-15T11:40:07.893000,2017-03-10T09:05:18.142000
transporte mercancia,Tramesa 2010L,CL,Calle,Jesus Hernandez Guzman,0,38110.0,38038,Santa Cruz de Tenerife,Z I Mercatenerife Nave C,,margaritatramesa2010@telefonica.net,922882320.0,922882320.0,-16.28332216,28.43895991,2017-02-15T11:40:07.893000,2017-03-10T09:05:18.142000
transporte mercancia,Tramesa 2010L,CL,Calle,Jesus Hernandez Guzman,24,38110.0,38038,Santa Cruz de Tenerife,Z I Mercatenerife,,,922882320.0,,-16.2831007,28.43900787,2017-02-15T11:40:07.893000,2017-02-16T13:51:26.067000
transporte mercancia,Tranacos,CL,Calle,La Campana,0,38109.0,38032,El Rosario,PI La Campana San Isidro,www.tranacos.com,info@tranacos.com,922210277.0,,-16.31770617,28.4181601,2017-02-15T11:40:07.893000,2018-01-15T08:01:43.325000
transporte guagua,Transalex Bus,CL,Calle,Alondra,4,38107.0,38038,Santa Cruz de Tenerife,El Sobradillo,www.transalexbus.com,reservas@transalexbus.com,922622039.0,922613003.0,-16.31936311,28.44451464,2016-05-09T12:45:15.374000,2015-08-04T10:46:09.756000
transporte mercancia,Transamaru,CL,Calle,La Campana,4,38109.0,38032,El Rosario,PI La Campana San Isidro,www.herasatenerife.com,jose.fragoso@herasatenerife.com,922629650.0,922629799.0,-16.3195537,28.41850524,2017-02-15T11:40:07.893000,2017-06-28T12:03:36.848000
transporte guagua,Transelp Bus,CM,Camino,Las Gavias,102,38206.0,38023,La Laguna,,www.transelp.es,info@transelp.es,922253228.0,922633025.0,-16.32973914,28.49693153,2016-05-09T12:45:15.374000,2015-08-03T12:27:40.037000
transporte sociosanitario,Transmedica Canarias,CL,Calle,San Borondon,7,38107.0,38038,Santa Cruz de Tenerife,Taco El Rosarito,www.transmedicacanarias.com,info@transmedicacanarias.com,922105626.0,,-16.29994089,28.44373767,2016-05-09T12:45:15.374000,2023-03-10T14:10:57.997000
transporte guagua,Transporte de Viajeros de Tenerife TRANSTENERIFE,CL,Calle,Llanos Acero,0,38109.0,38032,El Rosario,Pg El Chorrillo Industrial UA-C6,,,922611361.0,922615499.0,-16.32773917,28.41671554,2016-05-09T12:45:15.374000,2016-11-09T09:37:12.779000
transporte mercancia,Transporte y Combustible santana,CR,Carretera,Hoya Fria,10,38110.0,38038,Santa Cruz de Tenerife,P I El Mayorazgo,,,922207532.0,922207532.0,-16.28104022,28.44365527,2017-02-15T11:40:07.893000,2017-02-20T09:06:03.492000
transporte mercancia,Transporte y Materiales de Construccion Lucho,CL,Calle,Ingeniero Cervera,10,38110.0,38038,Santa Cruz de Tenerife,P I El Mayorazgo,www.belkriss.com,transporteslucho@hotmail.com,922559066.0,922031898.0,-16.28657042,28.44330663,2017-02-15T11:40:07.893000,2017-02-16T13:51:26.067000
transporte guagua,Transportes Acaymo,CM,Camino,Jagua Transversal,0,38120.0,38038,Santa Cruz de Tenerife,Pg Jagua,www.transportesacaymo.com,info@transportesacaymo.com,922549196.0,922591384.0,-16.20495727,28.50046107,2016-05-09T12:45:15.374000,2016-11-09T09:37:12.779000
transporte guagua,Transportes Acaymo,CM,Camino,Jagua Subida,0,38120.0,38038,Santa Cruz de Tenerife,Pg Jagua,www.transportesacaymo.com,info@transportesacaymo.com,922549196.0,922591384.0,-16.20496129,28.50116044,2016-05-09T12:45:15.374000,2016-11-09T09:37:12.779000
transporte guagua,Transportes Arencibia,CM,Camino,Jagua Transversal,0,38120.0,38038,Santa Cruz de Tenerife,Pg Jagua,,,659915454.0,922591895.0,-16.20463324,28.50045849,2016-05-09T12:45:15.374000,2016-11-09T09:37:12.779000
transporte mercancia,Transportes Arente,CL,Calle,Isidoro Luz Carpenter,8,38009.0,38038,Santa Cruz de Tenerife,Z I Chamberi,www.transportesarente.com,,922619917.0,922617311.0,-16.27295308,28.45024274,2017-02-15T11:40:07.893000,2017-02-16T13:51:26.067000
transporte guagua,Transportes Azkar,CM,Camino,Santa Ana,134,38330.0,38023,La Laguna,Pg La Cruz Chica,www.azkar.com,,922639040.0,922639640.0,-16.36940771,28.48857683,2016-05-09T12:45:15.374000,2016-07-28T12:45:21.578000
transporte,Transportes Carballo La Palma,PG,Polígono,Industrial Valle de Guimar,0,38509.0,38020,Güimar,PG GUIMAR MZ 28 PARC 4,www.transportescarballo.com,tenerife@transportescarballo.com,922539661.0,922539660.0,-16.36742898,28.3277054,2016-05-09T12:45:15.374000,2016-11-09T09:37:12.779000
transporte,Transportes Carballo La Palma,PG,Polígono,Industrial Valle de Guimar,0,38509.0,38020,Güimar,PG GUIMAR MZ 28 PARC 4,www.transportescarballo.com,tenerife@transportescarballo.com,922539661.0,922539660.0,-16.36724932,28.32738871,2016-05-09T12:45:15.374000,2016-11-09T09:37:12.779000
transporte,Transportes Carballo La Palma,PG,Polígono,Industrial Valle de Guimar,0,38509.0,38020,Güimar,PG GUIMAR MZ 28 PARC 4,www.transportescarballo.com,tenerife@transportescarballo.com,922539661.0,922539660.0,-16.36759565,28.32735179,2016-05-09T12:45:15.374000,2016-11-09T09:37:12.779000
transporte,Transportes Cilu Drago,CL,Calle,El Timple,2,38434.0,38022,Icod de los Vinos,Pg Las Almenas,,ciludrago@hotmail.es,922814076.0,922814076.0,-16.6953244,28.37943699,2016-05-09T12:45:15.374000,2016-06-20T10:33:07.646000
transporte,Transportes Cilu Drago,CL,Calle,Bandurria,0,38434.0,38022,Icod de los Vinos,Pg Las Almenas,,ciludrago@hotmail.es,922814076.0,922814076.0,-16.69571335,28.37992418,2016-05-09T12:45:15.374000,2016-11-09T09:37:12.779000
transporte guagua,Transportes Conrado,CL,Calle,Hipotenusa,23,38632.0,38006,Arona,Pg Costa del Silencio,www.transportesconrado.com,transportesconrado@hotmail.com,922794004.0,922733679.0,-16.63923614,28.02981521,2016-05-09T12:45:15.374000,2016-06-20T10:33:07.646000
transporte,Transportes Delgado Quintana,CL,Calle,Bandurria,11,38434.0,38022,Icod de los Vinos,Pg Las Almenas,,grupo_delgado_quintana@yahoo.es,922122025.0,922814097.0,-16.6946162,28.38056153,2016-05-09T12:45:15.374000,2016-06-20T10:33:07.646000
transporte guagua,Transportes El Mar Servies,AV,Avenida,Venezuela,9,38687.0,38019,Guía de Isora,Playa San Juan,,,693820092.0,922710025.0,-16.81758919,28.18196976,2016-05-09T12:45:15.374000,2016-03-17T09:06:46.586000
transporte mercancia,Transportes Especiales Pesados,CL,Calle,Islas Filipinas,1,38009.0,38038,Santa Cruz de Tenerife,P I Costa Sur Buenos Aires,www.trepesa.com,administracion@trepesa.com,922220565.0,922215066.0,-16.26695632,28.45394264,2017-02-15T11:40:07.893000,2017-02-16T13:51:26.067000
transporte taxi,Transportes Estmara,AV,Avenida,Pedro Guerra Cabrera,110,38500.0,38020,Güimar,,,,646789539.0,,-16.41287,28.30892199,2016-05-09T12:45:15.374000,2015-08-04T10:57:05.185000
transporte guagua,Transportes Herrera Bus,CL,Calle,Maestro Estany,11,38010.0,38038,Santa Cruz de Tenerife,Ofra,,,616578618.0,922325834.0,-16.28580607,28.45384867,2016-05-09T12:45:15.374000,2015-08-05T07:53:45.567000
transporte mercancia,Transportes Insulares Barittos,CR,Carretera,Hoya Fria,5,38110.0,38038,Santa Cruz de Tenerife,Z I Mercatenerife,www.viagregorio.es,viagregorio@viagregorio.es,922619077.0,922214040.0,-16.28008776,28.44395779,2017-02-15T11:40:07.893000,2017-02-20T09:06:03.492000
transporte guagua,Transportes Insulares de Tenerife Titsa,CL,Calle,Calados,0,38312.0,38026,La Orotava,P I San Jeronimo,www.titsa.com,,922336406.0,922336406.0,-16.54478966,28.39562392,2017-02-15T11:40:07.893000,2017-03-10T09:05:18.142000
transporte mercancia,Transportes Intercanarios,CL,Calle,Anatolio De Fuentes Garcia,0,38009.0,38038,Santa Cruz de Tenerife,P I Costa Sur Buenos Aires,,arodriguez@navierarmas.com,922220211.0,922220702.0,-16.27526331,28.44512771,2017-02-15T11:40:07.893000,2017-03-10T09:05:18.142000
transporte mercancia,Transportes Interinsulares Carballo 2006,CL,Calle,Fernando Arozena Quinterio,4,38009.0,38038,Santa Cruz de Tenerife,P I Costa Sur Buenos Aires A,,ticarballo@telefonica.net,928460082.0,,-16.26917846,28.45408188,2017-02-15T11:40:07.893000,2017-02-16T13:51:26.067000
transporte guagua,Transportes Interurbanos de Tenerife TITSA,CL,Calle,Infanta Elena,0,38632.0,38006,Arona,Pg Cho,www.titsa.com,miguel_cereijo@titsa.com,922739332.0,0.0,-16.64931401,28.04987768,2016-05-09T12:45:15.374000,2016-11-09T09:37:12.779000
transporte guagua,Transportes Interurbanos de Tenerife TITSA,CR,Carretera,General TF 152 Norte,0,38206.0,38023,La Laguna,Pg Los Rodeos,www.titsa.com,,922683311.0,922638311.0,-16.35015804,28.4900653,2016-05-09T12:45:15.374000,2016-11-09T09:37:12.779000
transporte guagua,Transportes Interurbanos de Tenerife TITSA,CL,Calle,Punta de Anaga,1,38111.0,38038,Santa Cruz de Tenerife,Los Alisios Cuevas Blancas,www.titsa.com,,922479500.0,922479502.0,-16.30599238,28.43072595,2016-05-09T12:45:15.374000,2017-07-26T12:24:53.293000
transporte guagua,Transportes Interurbanos de Tenerife TITSA,CL,Calle,Infanta Elena,0,38632.0,38006,Arona,Pg Cho,www.titsa.com,miguel_cereijo@titsa.com,922739332.0,0.0,-16.65067969,28.04955341,2016-05-09T12:45:15.374000,2016-11-09T09:37:12.779000
transporte guagua,Transportes Interurbanos de Tenerife TITSA,CR,Carretera,General TF 152 Norte,0,38206.0,38023,La Laguna,Pg Los Rodeos,www.titsa.com,,922638311.0,922638311.0,-16.35085757,28.49002198,2016-05-09T12:45:15.374000,2016-11-09T09:37:12.779000
transporte guagua,Transportes Interurbanos de Tenerife TITSA,CL,Calle,Infanta Elena,0,38632.0,38006,Arona,Pg Cho,www.titsa.com,miguel_cereijo@titsa.com,922739332.0,0.0,-16.65016067,28.04958682,2016-05-09T12:45:15.374000,2016-11-09T09:37:12.779000
transporte,Transportes José Manuel Álvarez Romero,CR,Carretera,Gral. Piedra Hincada,77,38687.0,38019,Guía de Isora,,,josemanuelromero182@gmail.com,922857359.0,,-16.78074366,28.18249636,2019-04-12T16:38:45.443000,2019-04-12T16:38:45.443000
transporte guagua,Transportes Kintasur Bus,CL,Calle,Duraznillo,5,38390.0,38039,Santa Úrsula,La Quinta,,kintasurbus@gmail.com,634543780.0,,-16.49372059,28.43036498,2016-05-09T12:45:15,2016-10-19T13:18:03.818000
transporte guagua,Transportes La Esperanza,CR,Carretera,General TF 24 Las Cañadas,14,38290.0,38032,El Rosario,La Esperanza,www.transporteslaesperanza.es,info@transporteslaesperanza.es,922548305.0,922548921.0,-16.36087,28.45739599,2016-05-09T12:45:15.374000,2015-08-04T10:49:35.113000
transporte guagua,Transportes Laly Bus,CL,Calle,Alonso de Castro,1,38320.0,38023,La Laguna,La Cuesta,,,922654186.0,,-16.28601888,28.46733097,2016-05-09T12:45:15.374000,2015-08-04T10:33:10.329000
transporte mercancia,Transportes Lixtocia,CL,Calle,Quinque,4,38390.0,38039,Santa Úrsula,,www.transportesfebrigar.com,transportesfebrigar@gmail.com,922302648.0,,-16.48530078,28.42933867,,2018-04-11T13:18:10.878000
transporte guagua,Transportes Lugoca,CL,Calle,Las Palmeras,9,38108.0,38023,La Laguna,Taco,,,922614870.0,,-16.29749141,28.44475399,2016-05-09T12:45:15.374000,2015-08-04T10:43:56.867000
transporte mercancia,Transportes Luis Gonzalez Casañas,CM,Camino,Los Pescadores,0,38108.0,38023,La Laguna,Z I Las Torres De Taco,,,922614870.0,922614870.0,-16.29298689,28.45186533,2017-02-15T11:40:07.893000,2017-03-10T09:05:18.142000
transporte guagua,Transportes Marino Bus,CL,Calle,Cruz de la Gallega,41,38107.0,38038,Santa Cruz de Tenerife,Partecaminos,www.marinobus.es,info@marinobus.es,922610450.0,922621434.0,-16.31726847,28.43035214,2016-05-09T12:45:15.374000,2015-08-04T10:46:09.756000
transporte guagua,Transportes Marino y Salazar,CL,Calle,Los Hoyos,5,38680.0,38019,Guía de Isora,Pg Guia Casco,,,922852533.0,922852533.0,-16.78324314,28.21438188,2016-05-09T12:45:15.374000,2016-08-24T13:02:13.637000
transporte guagua,Transportes Mary y Josue,CR,Carretera,General TF 111 Valle Tabares,100,38320.0,38023,La Laguna,,www.transportesmary.es,info@transportesmary.es,922648050.0,922655561.0,-16.28942992,28.47454136,2016-05-09T12:45:15.374000,2015-08-04T10:33:10.329000
transporte guagua,Transportes Mendoza Bus,CL,Calle,Jose Viera y Clavijo,11,38108.0,38023,La Laguna,Taco Los Andenes,www.mendozabus.es,info@mendozabus.es,666577163.0,822011279.0,-16.30589595,28.45014456,2016-05-09T12:45:15.374000,2015-08-04T10:43:56.867000
transporte mercancia,Transportes Noda,CL,Calle,Santa Isabel,32,38627.0,38006,Arona,Cabo Blanco,www.transportesnoda.com,,666504385.0,922720616.0,-16.67138617,28.07619386,2016-07-04T09:45:05.772000,2016-07-04T09:45:05.772000
transporte guagua,Transportes Paluper,CR,Carretera,General TF 21 Cuesta de la Villa Granadilla,32,38311.0,38026,La Orotava,Camino Polo,,info@paluper.com,922333707.0,922331574.0,-16.51343455,28.38775042,2016-05-09T12:45:15.374000,2015-08-04T13:31:40.098000
transporte guagua,Transportes Perez y Cairos,CR,Carretera,General TF 16 Tacoronte Tejina,63,38270.0,38023,La Laguna,Pg Valle de Guerra,www.perezycairos.com,info@perezycairos.com,922541351.0,922150444.0,-16.38110318,28.52260636,2016-05-09T12:45:15.374000,2016-06-28T08:37:37.006000
transporte guagua,Transportes Perez y Cairos,CL,Calle,Cuescaro,32,38639.0,38035,San Miguel,Z I Las Andoriñas,,,922541351.0,922150444.0,-16.60734988,28.05361953,2017-02-15T11:40:07.893000,2017-02-16T13:51:26.067000
transporte mercancia,Transportes Quintana y Dominguez,CL,Calle,Anatolio De Fuentes Garcia,26,38009.0,38038,Santa Cruz de Tenerife,P I Costa Sur Buenos Aires,www.transportesquintanaydominguez.com,info@transportesquintanaydominguez.com,922218498.0,,-16.27439925,28.44525503,2017-02-15T11:40:07.893000,2017-02-16T13:51:26.067000
transporte guagua,Transportes Rivero Negrin,CL,Calle,Los Desamparados,0,38111.0,38038,Santa Cruz de Tenerife,Pg El Pilar,,transportes@riveronegrin.com,922612373.0,922289556.0,-16.31520928,28.42874001,2016-05-09T12:45:15.374000,2016-11-09T09:37:12.779000
transporte,Transportes Robayna,CM,Camino,Principal Jagua,0,38120.0,38038,Santa Cruz de Tenerife,Pg Jagua,,,639637659.0,,-16.20774249,28.49879792,2016-05-09T12:45:15.374000,2016-11-09T09:37:12.779000
transporte sociosanitario,Transportes Sanitarios Isleños,CL,Calle,Antonio Lecuona Hardisson,18,38009.0,38038,Santa Cruz de Tenerife,Z I Chamberi,www.ambs-tasisa.es,servicios@ambc-islascanarias.com,922618540.0,902301616.0,-16.27529156,28.44897429,2017-02-15T11:40:07.893000,2023-03-10T14:14:48.823000
transporte guagua,Transportes Sierra y Gonzalez,CR,Carretera,General TF 655 Las  Chafiras,0,38632.0,38035,San Miguel,Oroteanda Baja,www.sierraygonzalez.es,www.sierraygonzalez.es/contacto,922735416.0,922735391.0,-16.63548898,28.04989446,2016-05-09T12:45:15.374000,2017-03-08T12:10:10.962000
transporte guagua,Transportes Vimar Transvimar,AV,Avenida,Republica Argentina,76,38208.0,38023,La Laguna,Las Canteras Glorieta,www.transvimar.com,administracion@transvimar.com,922252548.0,922259833.0,-16.30998603,28.50789644,2016-05-09T12:45:15.374000,2015-08-03T12:51:59.815000
transporte,Transportes y Logistica Gamesa,CM,Camino,Jagua Transversal,0,38120.0,38038,Santa Cruz de Tenerife,Pg Jagua,,transgamesa@hotmail.com,922659831.0,922659830.0,-16.20377672,28.50061679,2016-05-09T12:45:15.374000,2016-11-09T09:37:12.779000
transporte mercancia,Transteide Sourier MRW,CR,Carretera,General El Rosario,39,38108.0,38023,La Laguna,Z I Las Torres De Taco,www.mrw.es,u5007@grupomrw.com,922616600.0,922615199.0,-16.29552985,28.4467837,2017-02-15T11:40:07.893000,2017-02-16T13:51:26.067000
transporte guagua,Tropical Bus,RB,Rambla,Santa Cruz,100,38004.0,38038,Santa Cruz de Tenerife,Ed Sirinoque Lc 4,www.tropicalbus.com,reservas@tropicalbus.com,922248638.0,922241921.0,-16.25673629,28.47166831,2016-05-09T12:45:15.374000,2015-08-05T07:57:56.127000
transporte guagua,Ultramar Transport,AU,"Autopista, autovía",TF 1 Sur,0,38632.0,38006,Arona,Cho Km 65,www.ultramartransport.com,www.ultramartransport.com/contacto,922736900.0,922736167.0,-16.64653087,28.05258966,2016-05-09T12:45:15.374000,2016-11-09T09:37:12.779000
aparcamiento publico,ULL Aparcamiento Universidad,CL,Calle,Pedro Zerolo,1,38204.0,38023,La Laguna,Campus Central,,,,,-16.31593265,28.48149331,2016-05-09T12:45:15.374000,2018-11-28T08:54:26.433000
aparcamiento publico,Videojuegos Flipper Aparcamiento,AU,"Autopista, autovía",Santa Cruz La Laguna,0,38108.0,38023,La Laguna,Z I Las Torres De Taco Km 4.5,www.servisa.es,proteccion_datos@servisa.es,922626520.0,922622891.0,-16.2929476,28.45255689,2017-02-15T11:40:07.893000,2017-03-10T09:05:18.142000
